{
  "type": "FeatureCollection",
  "status": "navigation_draft_not_survey",
  "features": [
    {
      "type": "Feature",
      "id": "zju2_zijingang_b1_1f",
      "properties": {
        "id": "zju2_zijingang_b1_1f",
        "status": "navigation_draft_not_survey",
        "level_id": "zju2_zijingang_b1_1f",
        "facility_id": "zju2_zijingang",
        "building_id": "zju2_zijingang_b1",
        "name": "1F",
        "ordinal": 1,
        "height_m": null,
        "geometry_role": "generalized_occupied_floor_extent_not_wall_survey",
        "absolute_accuracy_m": null,
        "building_confidence": "medium",
        "geometry_px": {
          "type": "Polygon",
          "coordinates": [
            [
              [
                545.0,
                39.0
              ],
              [
                632.0,
                39.0
              ],
              [
                632.0,
                14.0
              ],
              [
                674.0,
                14.0
              ],
              [
                674.0,
                39.0
              ],
              [
                817.0,
                39.0
              ],
              [
                817.0,
                221.0
              ],
              [
                1070.0,
                221.0
              ],
              [
                1285.0,
                584.0
              ],
              [
                1147.0,
                664.0
              ],
              [
                1090.0,
                581.0
              ],
              [
                950.0,
                581.0
              ],
              [
                950.0,
                688.0
              ],
              [
                883.0,
                688.0
              ],
              [
                883.0,
                581.0
              ],
              [
                817.0,
                581.0
              ],
              [
                817.0,
                709.0
              ],
              [
                579.0,
                718.0
              ],
              [
                579.0,
                634.0
              ],
              [
                545.0,
                634.0
              ],
              [
                545.0,
                39.0
              ]
            ]
          ]
        }
      },
      "geometry": {
        "type": "Polygon",
        "coordinates": [
          [
            [
              120.08394023828157,
              30.31158112631303
            ],
            [
              120.08353646695754,
              30.311577537717863
            ],
            [
              120.08353720416589,
              30.31155900184889
            ],
            [
              120.08348020117724,
              30.311558495124302
            ],
            [
              120.08349146914927,
              30.311428798339136
            ],
            [
              120.08357833073356,
              30.311429570466004
            ],
            [
              120.08357976176238,
              30.31139358907093
            ],
            [
              120.0835071509328,
              30.31139294362761
            ],
            [
              120.0835086036685,
              30.311356417062196
            ],
            [
              120.08358121447121,
              30.31135706250294
            ],
            [
              120.08358424997492,
              30.31128073833017
            ],
            [
              120.08352916164914,
              30.311249162828453
            ],
            [
              120.08358644216834,
              30.311174411563485
            ],
            [
              120.0838281142307,
              30.311293813048387
            ],
            [
              120.0838226289736,
              30.311431741763524
            ],
            [
              120.08394613532526,
              30.311432839301382
            ],
            [
              120.0839430350459,
              30.31151079901761
            ],
            [
              120.08396000021851,
              30.31151094977048
            ],
            [
              120.08395908964894,
              30.31153384702994
            ],
            [
              120.0839421244724,
              30.311533696276697
            ],
            [
              120.08394023828157,
              30.31158112631303
            ]
          ]
        ]
      }
    },
    {
      "type": "Feature",
      "id": "zju2_zijingang_b2_1f",
      "properties": {
        "id": "zju2_zijingang_b2_1f",
        "status": "navigation_draft_not_survey",
        "level_id": "zju2_zijingang_b2_1f",
        "facility_id": "zju2_zijingang",
        "building_id": "zju2_zijingang_b2",
        "name": "1F",
        "ordinal": 1,
        "height_m": null,
        "geometry_role": "generalized_occupied_floor_extent_not_wall_survey",
        "absolute_accuracy_m": null,
        "building_confidence": "medium",
        "geometry_px": {
          "type": "Polygon",
          "coordinates": [
            [
              [
                43.0,
                75.0
              ],
              [
                171.0,
                75.0
              ],
              [
                171.0,
                77.0
              ],
              [
                239.0,
                77.0
              ],
              [
                239.0,
                38.0
              ],
              [
                545.0,
                38.0
              ],
              [
                545.0,
                219.0
              ],
              [
                317.0,
                219.0
              ],
              [
                317.0,
                369.0
              ],
              [
                545.0,
                369.0
              ],
              [
                545.0,
                581.0
              ],
              [
                399.0,
                581.0
              ],
              [
                399.0,
                687.0
              ],
              [
                85.0,
                699.0
              ],
              [
                85.0,
                581.0
              ],
              [
                45.0,
                581.0
              ],
              [
                43.0,
                75.0
              ]
            ]
          ]
        }
      },
      "geometry": {
        "type": "Polygon",
        "coordinates": [
          [
            [
              120.0839049247361,
              30.31185458596958
            ],
            [
              120.08356159187011,
              30.311850443734777
            ],
            [
              120.0835624591761,
              30.311828636830523
            ],
            [
              120.08348238332898,
              30.31182792499719
            ],
            [
              120.08349733508405,
              30.3116568131995
            ],
            [
              120.08356926750015,
              30.31165745262883
            ],
            [
              120.0835724331371,
              30.31157785742481
            ],
            [
              120.08371629786632,
              30.311579136153693
            ],
            [
              120.0837113544454,
              30.311703435530184
            ],
            [
              120.0838131456662,
              30.311704340207854
            ],
            [
              120.0838180889589,
              30.311580040819102
            ],
            [
              120.08394091688898,
              30.311581132343232
            ],
            [
              120.08393428267149,
              30.31174795522622
            ],
            [
              120.08390781693907,
              30.31174772004142
            ],
            [
              120.08390634265218,
              30.311784791791503
            ],
            [
              120.08390769986973,
              30.311784803852426
            ],
            [
              120.0839049247361,
              30.31185458596958
            ]
          ]
        ]
      }
    },
    {
      "type": "Feature",
      "id": "zju2_zijingang_shared_1f",
      "properties": {
        "id": "zju2_zijingang_shared_1f",
        "status": "navigation_draft_not_survey",
        "level_id": "zju2_zijingang_shared_1f",
        "facility_id": "zju2_zijingang",
        "building_id": null,
        "name": "1F",
        "ordinal": 1,
        "height_m": null,
        "geometry_role": "generalized_occupied_floor_extent_not_wall_survey",
        "absolute_accuracy_m": null,
        "building_confidence": "medium",
        "geometry_px": {
          "type": "Polygon",
          "coordinates": [
            [
              [
                151.0,
                370.0
              ],
              [
                659.0,
                370.0
              ],
              [
                659.0,
                402.0
              ],
              [
                151.0,
                402.0
              ],
              [
                151.0,
                370.0
              ]
            ]
          ]
        }
      },
      "geometry": {
        "type": "Polygon",
        "coordinates": [
          [
            [
              120.08370707666288,
              30.311793928165606
            ],
            [
              120.08368536118367,
              30.311793735155433
            ],
            [
              120.0836963755419,
              30.311516787428623
            ],
            [
              120.08371809096016,
              30.31151698043297
            ],
            [
              120.08370707666288,
              30.311793928165606
            ]
          ]
        ]
      }
    }
  ]
}
