{
  "type": "FeatureCollection",
  "status": "navigation_draft_not_survey",
  "features": [
    {
      "type": "Feature",
      "id": "e_1f_0000",
      "properties": {
        "id": "e_1f_0000",
        "status": "navigation_draft_not_survey",
        "level_id": "zju2_zijingang_b2_1f",
        "floor": "1F",
        "source": "n_1f_113_558",
        "target": "n_o_1f_b2_stair_s",
        "length_m": 0.6531143993864532,
        "walk_seconds": 0.5679255646838725,
        "accessible": "unknown",
        "access_control": "unknown",
        "direction": "bidirectional",
        "routing_status": "draft_enabled",
        "evidence_ids": [
          "plan_1f"
        ],
        "cost_status": "assumed_not_measured",
        "walking_speed_mps": 1.15,
        "geometry_px": {
          "type": "LineString",
          "coordinates": [
            [
              113.0,
              558.0
            ],
            [
              113.0,
              568.0
            ]
          ]
        }
      },
      "geometry": {
        "type": "LineString",
        "coordinates": [
          [
            120.08357867429211,
            30.311813510738723
          ],
          [
            120.08357188820413,
            30.311813450416672
          ]
        ]
      }
    },
    {
      "type": "Feature",
      "id": "e_1f_0001",
      "properties": {
        "id": "e_1f_0001",
        "status": "navigation_draft_not_survey",
        "level_id": "zju2_zijingang_b2_1f",
        "floor": "1F",
        "source": "n_1f_113_558",
        "target": "n_1f_152_558",
        "length_m": 2.3597753989513586,
        "walk_seconds": 2.05197860778379,
        "accessible": "unknown",
        "access_control": "unknown",
        "direction": "bidirectional",
        "routing_status": "draft_enabled",
        "evidence_ids": [
          "plan_1f"
        ],
        "cost_status": "assumed_not_measured",
        "walking_speed_mps": 1.15,
        "geometry_px": {
          "type": "LineString",
          "coordinates": [
            [
              113.0,
              558.0
            ],
            [
              152.0,
              558.0
            ]
          ]
        }
      },
      "geometry": {
        "type": "LineString",
        "coordinates": [
          [
            120.08357867429211,
            30.311813510738723
          ],
          [
            120.08357951991076,
            30.3117922490066
          ]
        ]
      }
    },
    {
      "type": "Feature",
      "id": "e_1f_0002",
      "properties": {
        "id": "e_1f_0002",
        "status": "navigation_draft_not_survey",
        "level_id": "zju2_zijingang_b2_1f",
        "floor": "1F",
        "source": "n_o_1f_b2_surgery",
        "target": "n_1f_126_414",
        "length_m": 0.7837372792957241,
        "walk_seconds": 0.6815106776484559,
        "accessible": "unknown",
        "access_control": "unknown",
        "direction": "bidirectional",
        "routing_status": "draft_enabled",
        "evidence_ids": [
          "plan_1f"
        ],
        "cost_status": "assumed_not_measured",
        "walking_speed_mps": 1.15,
        "geometry_px": {
          "type": "LineString",
          "coordinates": [
            [
              126.0,
              402.0
            ],
            [
              126.0,
              414.0
            ]
          ]
        }
      },
      "geometry": {
        "type": "LineString",
        "coordinates": [
          [
            120.08368481913514,
            30.311807364472305
          ],
          [
            120.08367667582941,
            30.311807292092453
          ]
        ]
      }
    },
    {
      "type": "Feature",
      "id": "e_1f_0003",
      "properties": {
        "id": "e_1f_0003",
        "status": "navigation_draft_not_survey",
        "level_id": "zju2_zijingang_b2_1f",
        "floor": "1F",
        "source": "n_1f_126_414",
        "target": "n_1f_152_414",
        "length_m": 1.5731835994562906,
        "walk_seconds": 1.3679857386576442,
        "accessible": "unknown",
        "access_control": "unknown",
        "direction": "bidirectional",
        "routing_status": "draft_enabled",
        "evidence_ids": [
          "plan_1f"
        ],
        "cost_status": "assumed_not_measured",
        "walking_speed_mps": 1.15,
        "geometry_px": {
          "type": "LineString",
          "coordinates": [
            [
              126.0,
              414.0
            ],
            [
              152.0,
              414.0
            ]
          ]
        }
      },
      "geometry": {
        "type": "LineString",
        "coordinates": [
          [
            120.08367667582941,
            30.311807292092453
          ],
          [
            120.08367723956106,
            30.311793117603013
          ]
        ]
      }
    },
    {
      "type": "Feature",
      "id": "e_1f_0004",
      "properties": {
        "id": "e_1f_0004",
        "status": "navigation_draft_not_survey",
        "level_id": "zju2_zijingang_b2_1f",
        "floor": "1F",
        "source": "n_1f_152_100",
        "target": "n_1f_152_387",
        "length_m": 18.744383262574985,
        "walk_seconds": 16.299463706586945,
        "accessible": "unknown",
        "access_control": "unknown",
        "direction": "bidirectional",
        "routing_status": "draft_enabled",
        "evidence_ids": [
          "plan_1f"
        ],
        "cost_status": "assumed_not_measured",
        "walking_speed_mps": 1.15,
        "geometry_px": {
          "type": "LineString",
          "coordinates": [
            [
              152.0,
              100.0
            ],
            [
              152.0,
              387.0
            ]
          ]
        }
      },
      "geometry": {
        "type": "LineString",
        "coordinates": [
          [
            120.08389032271539,
            30.311795011372592
          ],
          [
            120.08369556199636,
            30.311793280456712
          ]
        ]
      }
    },
    {
      "type": "Feature",
      "id": "e_1f_0005",
      "properties": {
        "id": "e_1f_0005",
        "status": "navigation_draft_not_survey",
        "level_id": "zju2_zijingang_b2_1f",
        "floor": "1F",
        "source": "n_1f_152_387",
        "target": "n_1f_152_414",
        "length_m": 1.7634088783535034,
        "walk_seconds": 1.5333990246552205,
        "accessible": "unknown",
        "access_control": "unknown",
        "direction": "bidirectional",
        "routing_status": "draft_enabled",
        "evidence_ids": [
          "plan_1f"
        ],
        "cost_status": "assumed_not_measured",
        "walking_speed_mps": 1.15,
        "geometry_px": {
          "type": "LineString",
          "coordinates": [
            [
              152.0,
              387.0
            ],
            [
              152.0,
              414.0
            ]
          ]
        }
      },
      "geometry": {
        "type": "LineString",
        "coordinates": [
          [
            120.08369556199636,
            30.311793280456712
          ],
          [
            120.08367723956106,
            30.311793117603013
          ]
        ]
      }
    },
    {
      "type": "Feature",
      "id": "e_1f_0006",
      "properties": {
        "id": "e_1f_0006",
        "status": "navigation_draft_not_survey",
        "level_id": "zju2_zijingang_b2_1f",
        "floor": "1F",
        "source": "n_1f_152_387",
        "target": "n_1f_294_387",
        "length_m": 8.592002734953745,
        "walk_seconds": 7.471306726046735,
        "accessible": "unknown",
        "access_control": "unknown",
        "direction": "bidirectional",
        "routing_status": "draft_enabled",
        "evidence_ids": [
          "plan_1f"
        ],
        "cost_status": "assumed_not_measured",
        "walking_speed_mps": 1.15,
        "geometry_px": {
          "type": "LineString",
          "coordinates": [
            [
              152.0,
              387.0
            ],
            [
              294.0,
              387.0
            ]
          ]
        }
      },
      "geometry": {
        "type": "LineString",
        "coordinates": [
          [
            120.08369556199636,
            30.311793280456712
          ],
          [
            120.08369864081806,
            30.311715865935422
          ]
        ]
      }
    },
    {
      "type": "Feature",
      "id": "e_1f_0007",
      "properties": {
        "id": "e_1f_0007",
        "status": "navigation_draft_not_survey",
        "level_id": "zju2_zijingang_b2_1f",
        "floor": "1F",
        "source": "n_1f_152_414",
        "target": "n_1f_152_558",
        "length_m": 9.404847351272085,
        "walk_seconds": 8.178128131540944,
        "accessible": "unknown",
        "access_control": "unknown",
        "direction": "bidirectional",
        "routing_status": "draft_enabled",
        "evidence_ids": [
          "plan_1f"
        ],
        "cost_status": "assumed_not_measured",
        "walking_speed_mps": 1.15,
        "geometry_px": {
          "type": "LineString",
          "coordinates": [
            [
              152.0,
              414.0
            ],
            [
              152.0,
              558.0
            ]
          ]
        }
      },
      "geometry": {
        "type": "LineString",
        "coordinates": [
          [
            120.08367723956106,
            30.311793117603013
          ],
          [
            120.08357951991076,
            30.3117922490066
          ]
        ]
      }
    },
    {
      "type": "Feature",
      "id": "e_1f_0008",
      "properties": {
        "id": "e_1f_0008",
        "status": "navigation_draft_not_survey",
        "level_id": "zju2_zijingang_b2_1f",
        "floor": "1F",
        "source": "n_1f_152_558",
        "target": "n_1f_152_568",
        "length_m": 0.6531143993864532,
        "walk_seconds": 0.5679255646838725,
        "accessible": "unknown",
        "access_control": "unknown",
        "direction": "bidirectional",
        "routing_status": "draft_enabled",
        "evidence_ids": [
          "plan_1f"
        ],
        "cost_status": "assumed_not_measured",
        "walking_speed_mps": 1.15,
        "geometry_px": {
          "type": "LineString",
          "coordinates": [
            [
              152.0,
              558.0
            ],
            [
              152.0,
              568.0
            ]
          ]
        }
      },
      "geometry": {
        "type": "LineString",
        "coordinates": [
          [
            120.08357951991076,
            30.3117922490066
          ],
          [
            120.08357273382423,
            30.31179218868468
          ]
        ]
      }
    },
    {
      "type": "Feature",
      "id": "e_1f_0009",
      "properties": {
        "id": "e_1f_0009",
        "status": "navigation_draft_not_survey",
        "level_id": "zju2_zijingang_b2_1f",
        "floor": "1F",
        "source": "n_o_1f_b2_103",
        "target": "n_1f_294_180",
        "length_m": 1.452169476743304,
        "walk_seconds": 1.262756066733308,
        "accessible": "unknown",
        "access_control": "unknown",
        "direction": "bidirectional",
        "routing_status": "draft_enabled",
        "evidence_ids": [
          "plan_1f"
        ],
        "cost_status": "assumed_not_measured",
        "walking_speed_mps": 1.15,
        "geometry_px": {
          "type": "LineString",
          "coordinates": [
            [
              270.0,
              180.0
            ],
            [
              294.0,
              180.0
            ]
          ]
        }
      },
      "geometry": {
        "type": "LineString",
        "coordinates": [
          [
            120.08383859237658,
            30.31173019853096
          ],
          [
            120.08383911272148,
            30.311717114384646
          ]
        ]
      }
    },
    {
      "type": "Feature",
      "id": "e_1f_0010",
      "properties": {
        "id": "e_1f_0010",
        "status": "navigation_draft_not_survey",
        "level_id": "zju2_zijingang_b2_1f",
        "floor": "1F",
        "source": "n_o_1f_b2_102",
        "target": "n_1f_294_228",
        "length_m": 1.4521694762779163,
        "walk_seconds": 1.262756066328623,
        "accessible": "unknown",
        "access_control": "unknown",
        "direction": "bidirectional",
        "routing_status": "draft_enabled",
        "evidence_ids": [
          "plan_1f"
        ],
        "cost_status": "assumed_not_measured",
        "walking_speed_mps": 1.15,
        "geometry_px": {
          "type": "LineString",
          "coordinates": [
            [
              270.0,
              228.0
            ],
            [
              294.0,
              228.0
            ]
          ]
        }
      },
      "geometry": {
        "type": "LineString",
        "coordinates": [
          [
            120.0838060191758,
            30.311729909048502
          ],
          [
            120.083806539525,
            30.311716824902607
          ]
        ]
      }
    },
    {
      "type": "Feature",
      "id": "e_1f_0011",
      "properties": {
        "id": "e_1f_0011",
        "status": "navigation_draft_not_survey",
        "level_id": "zju2_zijingang_b2_1f",
        "floor": "1F",
        "source": "n_o_1f_b2_101",
        "target": "n_1f_294_293",
        "length_m": 1.4521694762776607,
        "walk_seconds": 1.2627560663284008,
        "accessible": "unknown",
        "access_control": "unknown",
        "direction": "bidirectional",
        "routing_status": "draft_enabled",
        "evidence_ids": [
          "plan_1f"
        ],
        "cost_status": "assumed_not_measured",
        "walking_speed_mps": 1.15,
        "geometry_px": {
          "type": "LineString",
          "coordinates": [
            [
              270.0,
              293.0
            ],
            [
              294.0,
              293.0
            ]
          ]
        }
      },
      "geometry": {
        "type": "LineString",
        "coordinates": [
          [
            120.08376190963446,
            30.311729517028084
          ],
          [
            120.08376242998952,
            30.311716432882754
          ]
        ]
      }
    },
    {
      "type": "Feature",
      "id": "e_1f_0012",
      "properties": {
        "id": "e_1f_0012",
        "status": "navigation_draft_not_survey",
        "level_id": "zju2_zijingang_b2_1f",
        "floor": "1F",
        "source": "n_1f_294_180",
        "target": "n_1f_294_202",
        "length_m": 1.4368516786602767,
        "walk_seconds": 1.2494362423132843,
        "accessible": "unknown",
        "access_control": "unknown",
        "direction": "bidirectional",
        "routing_status": "draft_enabled",
        "evidence_ids": [
          "plan_1f"
        ],
        "cost_status": "assumed_not_measured",
        "walking_speed_mps": 1.15,
        "geometry_px": {
          "type": "LineString",
          "coordinates": [
            [
              294.0,
              180.0
            ],
            [
              294.0,
              202.0
            ]
          ]
        }
      },
      "geometry": {
        "type": "LineString",
        "coordinates": [
          [
            120.08383911272148,
            30.311717114384646
          ],
          [
            120.08382418333963,
            30.31171698170639
          ]
        ]
      }
    },
    {
      "type": "Feature",
      "id": "e_1f_0013",
      "properties": {
        "id": "e_1f_0013",
        "status": "navigation_draft_not_survey",
        "level_id": "zju2_zijingang_b2_1f",
        "floor": "1F",
        "source": "n_1f_294_202",
        "target": "n_1f_294_228",
        "length_m": 1.698097438413418,
        "walk_seconds": 1.476606468185581,
        "accessible": "unknown",
        "access_control": "unknown",
        "direction": "bidirectional",
        "routing_status": "draft_enabled",
        "evidence_ids": [
          "plan_1f"
        ],
        "cost_status": "assumed_not_measured",
        "walking_speed_mps": 1.15,
        "geometry_px": {
          "type": "LineString",
          "coordinates": [
            [
              294.0,
              202.0
            ],
            [
              294.0,
              228.0
            ]
          ]
        }
      },
      "geometry": {
        "type": "LineString",
        "coordinates": [
          [
            120.08382418333963,
            30.31171698170639
          ],
          [
            120.083806539525,
            30.311716824902607
          ]
        ]
      }
    },
    {
      "type": "Feature",
      "id": "e_1f_0014",
      "properties": {
        "id": "e_1f_0014",
        "status": "navigation_draft_not_survey",
        "level_id": "zju2_zijingang_b2_1f",
        "floor": "1F",
        "source": "n_1f_294_202",
        "target": "n_1f_380p5_202",
        "length_m": 5.233860821061574,
        "walk_seconds": 4.551183322662239,
        "accessible": "unknown",
        "access_control": "unknown",
        "direction": "bidirectional",
        "routing_status": "draft_enabled",
        "evidence_ids": [
          "plan_1f"
        ],
        "cost_status": "assumed_not_measured",
        "walking_speed_mps": 1.15,
        "geometry_px": {
          "type": "LineString",
          "coordinates": [
            [
              294.0,
              202.0
            ],
            [
              380.5,
              202.0
            ]
          ]
        }
      },
      "geometry": {
        "type": "LineString",
        "coordinates": [
          [
            120.08382418333963,
            30.31171698170639
          ],
          [
            120.08382605875408,
            30.3116698242628
          ]
        ]
      }
    },
    {
      "type": "Feature",
      "id": "e_1f_0015",
      "properties": {
        "id": "e_1f_0015",
        "status": "navigation_draft_not_survey",
        "level_id": "zju2_zijingang_b2_1f",
        "floor": "1F",
        "source": "n_1f_294_228",
        "target": "n_1f_294_293",
        "length_m": 4.245243596062646,
        "walk_seconds": 3.6915161704892574,
        "accessible": "unknown",
        "access_control": "unknown",
        "direction": "bidirectional",
        "routing_status": "draft_enabled",
        "evidence_ids": [
          "plan_1f"
        ],
        "cost_status": "assumed_not_measured",
        "walking_speed_mps": 1.15,
        "geometry_px": {
          "type": "LineString",
          "coordinates": [
            [
              294.0,
              228.0
            ],
            [
              294.0,
              293.0
            ]
          ]
        }
      },
      "geometry": {
        "type": "LineString",
        "coordinates": [
          [
            120.083806539525,
            30.311716824902607
          ],
          [
            120.08376242998952,
            30.311716432882754
          ]
        ]
      }
    },
    {
      "type": "Feature",
      "id": "e_1f_0016",
      "properties": {
        "id": "e_1f_0016",
        "status": "navigation_draft_not_survey",
        "level_id": "zju2_zijingang_b2_1f",
        "floor": "1F",
        "source": "n_1f_294_293",
        "target": "n_1f_294_387",
        "length_m": 6.139275354296319,
        "walk_seconds": 5.338500308083756,
        "accessible": "unknown",
        "access_control": "unknown",
        "direction": "bidirectional",
        "routing_status": "draft_enabled",
        "evidence_ids": [
          "plan_1f"
        ],
        "cost_status": "assumed_not_measured",
        "walking_speed_mps": 1.15,
        "geometry_px": {
          "type": "LineString",
          "coordinates": [
            [
              294.0,
              293.0
            ],
            [
              294.0,
              387.0
            ]
          ]
        }
      },
      "geometry": {
        "type": "LineString",
        "coordinates": [
          [
            120.08376242998952,
            30.311716432882754
          ],
          [
            120.08369864081806,
            30.311715865935422
          ]
        ]
      }
    },
    {
      "type": "Feature",
      "id": "e_1f_0017",
      "properties": {
        "id": "e_1f_0017",
        "status": "navigation_draft_not_survey",
        "level_id": "zju2_zijingang_b2_1f",
        "floor": "1F",
        "source": "n_1f_294_387",
        "target": "n_1f_347p5_387",
        "length_m": 3.2371277911794394,
        "walk_seconds": 2.814893731460382,
        "accessible": "unknown",
        "access_control": "unknown",
        "direction": "bidirectional",
        "routing_status": "draft_enabled",
        "evidence_ids": [
          "plan_1f"
        ],
        "cost_status": "assumed_not_measured",
        "walking_speed_mps": 1.15,
        "geometry_px": {
          "type": "LineString",
          "coordinates": [
            [
              294.0,
              387.0
            ],
            [
              347.5,
              387.0
            ]
          ]
        }
      },
      "geometry": {
        "type": "LineString",
        "coordinates": [
          [
            120.08369864081806,
            30.311715865935422
          ],
          [
            120.08369980079404,
            30.311686699196446
          ]
        ]
      }
    },
    {
      "type": "Feature",
      "id": "e_1f_0018",
      "properties": {
        "id": "e_1f_0018",
        "status": "navigation_draft_not_survey",
        "level_id": "zju2_zijingang_b2_1f",
        "floor": "1F",
        "source": "n_1f_347p5_387",
        "target": "n_o_1f_b2_machine_3",
        "length_m": 0.9796715990868796,
        "walk_seconds": 0.8518883470320693,
        "accessible": "unknown",
        "access_control": "unknown",
        "direction": "bidirectional",
        "routing_status": "draft_enabled",
        "evidence_ids": [
          "plan_1f"
        ],
        "cost_status": "assumed_not_measured",
        "walking_speed_mps": 1.15,
        "geometry_px": {
          "type": "LineString",
          "coordinates": [
            [
              347.5,
              387.0
            ],
            [
              347.5,
              402.0
            ]
          ]
        }
      },
      "geometry": {
        "type": "LineString",
        "coordinates": [
          [
            120.08369980079404,
            30.311686699196446
          ],
          [
            120.08368962167424,
            30.31168660872354
          ]
        ]
      }
    },
    {
      "type": "Feature",
      "id": "e_1f_0019",
      "properties": {
        "id": "e_1f_0019",
        "status": "navigation_draft_not_survey",
        "level_id": "zju2_zijingang_b2_1f",
        "floor": "1F",
        "source": "n_1f_347p5_387",
        "target": "n_1f_427p5_387",
        "length_m": 4.840564921081091,
        "walk_seconds": 4.2091868878966014,
        "accessible": "unknown",
        "access_control": "unknown",
        "direction": "bidirectional",
        "routing_status": "draft_enabled",
        "evidence_ids": [
          "plan_1f"
        ],
        "cost_status": "assumed_not_measured",
        "walking_speed_mps": 1.15,
        "geometry_px": {
          "type": "LineString",
          "coordinates": [
            [
              347.5,
              387.0
            ],
            [
              427.5,
              387.0
            ]
          ]
        }
      },
      "geometry": {
        "type": "LineString",
        "coordinates": [
          [
            120.08369980079404,
            30.311686699196446
          ],
          [
            120.08370153533482,
            30.311643085380858
          ]
        ]
      }
    },
    {
      "type": "Feature",
      "id": "e_1f_0020",
      "properties": {
        "id": "e_1f_0020",
        "status": "navigation_draft_not_survey",
        "level_id": "zju2_zijingang_b2_1f",
        "floor": "1F",
        "source": "n_o_1f_b2_mri",
        "target": "n_1f_380p5_202",
        "length_m": 2.6777690375002976,
        "walk_seconds": 2.3284948152176503,
        "accessible": "unknown",
        "access_control": "unknown",
        "direction": "bidirectional",
        "routing_status": "draft_enabled",
        "evidence_ids": [
          "plan_1f"
        ],
        "cost_status": "assumed_not_measured",
        "walking_speed_mps": 1.15,
        "geometry_px": {
          "type": "LineString",
          "coordinates": [
            [
              380.5,
              161.0
            ],
            [
              380.5,
              202.0
            ]
          ]
        }
      },
      "geometry": {
        "type": "LineString",
        "coordinates": [
          [
            120.08385388167981,
            30.31167007152419
          ],
          [
            120.08382605875408,
            30.3116698242628
          ]
        ]
      }
    },
    {
      "type": "Feature",
      "id": "e_1f_0021",
      "properties": {
        "id": "e_1f_0021",
        "status": "navigation_draft_not_survey",
        "level_id": "zju2_zijingang_b2_1f",
        "floor": "1F",
        "source": "n_1f_380p5_202",
        "target": "n_1f_490_202",
        "length_m": 6.625523235982613,
        "walk_seconds": 5.76132455302836,
        "accessible": "unknown",
        "access_control": "unknown",
        "direction": "bidirectional",
        "routing_status": "draft_enabled",
        "evidence_ids": [
          "plan_1f"
        ],
        "cost_status": "assumed_not_measured",
        "walking_speed_mps": 1.15,
        "geometry_px": {
          "type": "LineString",
          "coordinates": [
            [
              380.5,
              202.0
            ],
            [
              490.0,
              202.0
            ]
          ]
        }
      },
      "geometry": {
        "type": "LineString",
        "coordinates": [
          [
            120.08382605875408,
            30.3116698242628
          ],
          [
            120.08382843282824,
            30.31161012784514
          ]
        ]
      }
    },
    {
      "type": "Feature",
      "id": "e_1f_0022",
      "properties": {
        "id": "e_1f_0022",
        "status": "navigation_draft_not_survey",
        "level_id": "zju2_zijingang_b2_1f",
        "floor": "1F",
        "source": "n_1f_427p5_387",
        "target": "n_o_1f_b2_machine_2",
        "length_m": 0.9796715990868796,
        "walk_seconds": 0.8518883470320693,
        "accessible": "unknown",
        "access_control": "unknown",
        "direction": "bidirectional",
        "routing_status": "draft_enabled",
        "evidence_ids": [
          "plan_1f"
        ],
        "cost_status": "assumed_not_measured",
        "walking_speed_mps": 1.15,
        "geometry_px": {
          "type": "LineString",
          "coordinates": [
            [
              427.5,
              387.0
            ],
            [
              427.5,
              402.0
            ]
          ]
        }
      },
      "geometry": {
        "type": "LineString",
        "coordinates": [
          [
            120.08370153533482,
            30.311643085380858
          ],
          [
            120.08369135621956,
            30.311642994908375
          ]
        ]
      }
    },
    {
      "type": "Feature",
      "id": "e_1f_0023",
      "properties": {
        "id": "e_1f_0023",
        "status": "navigation_draft_not_survey",
        "level_id": "zju2_zijingang_b2_1f",
        "floor": "1F",
        "source": "n_1f_427p5_387",
        "target": "n_1f_509p5_387",
        "length_m": 4.961579044259465,
        "walk_seconds": 4.314416560225622,
        "accessible": "unknown",
        "access_control": "unknown",
        "direction": "bidirectional",
        "routing_status": "draft_enabled",
        "evidence_ids": [
          "plan_1f"
        ],
        "cost_status": "assumed_not_measured",
        "walking_speed_mps": 1.15,
        "geometry_px": {
          "type": "LineString",
          "coordinates": [
            [
              427.5,
              387.0
            ],
            [
              509.5,
              387.0
            ]
          ]
        }
      },
      "geometry": {
        "type": "LineString",
        "coordinates": [
          [
            120.08370153533482,
            30.311643085380858
          ],
          [
            120.08370331323583,
            30.311598381219483
          ]
        ]
      }
    },
    {
      "type": "Feature",
      "id": "e_1f_0024",
      "properties": {
        "id": "e_1f_0024",
        "status": "navigation_draft_not_survey",
        "level_id": "zju2_zijingang_b2_1f",
        "floor": "1F",
        "source": "n_o_1f_b2_electrical",
        "target": "n_1f_490_202",
        "length_m": 2.5471461576492276,
        "walk_seconds": 2.214909702303676,
        "accessible": "unknown",
        "access_control": "unknown",
        "direction": "bidirectional",
        "routing_status": "draft_enabled",
        "evidence_ids": [
          "plan_1f"
        ],
        "cost_status": "assumed_not_measured",
        "walking_speed_mps": 1.15,
        "geometry_px": {
          "type": "LineString",
          "coordinates": [
            [
              490.0,
              163.0
            ],
            [
              490.0,
              202.0
            ]
          ]
        }
      },
      "geometry": {
        "type": "LineString",
        "coordinates": [
          [
            120.08385489852202,
            30.31161036304361
          ],
          [
            120.08382843282824,
            30.31161012784514
          ]
        ]
      }
    },
    {
      "type": "Feature",
      "id": "e_1f_0025",
      "properties": {
        "id": "e_1f_0025",
        "status": "navigation_draft_not_survey",
        "level_id": "zju2_zijingang_shared_1f",
        "floor": "1F",
        "source": "n_1f_490_202",
        "target": "n_1f_563_202",
        "length_m": 4.417015490189603,
        "walk_seconds": 3.840883034947481,
        "accessible": "unknown",
        "access_control": "unknown",
        "direction": "bidirectional",
        "routing_status": "draft_enabled",
        "evidence_ids": [
          "plan_1f"
        ],
        "cost_status": "assumed_not_measured",
        "walking_speed_mps": 1.15,
        "geometry_px": {
          "type": "LineString",
          "coordinates": [
            [
              490.0,
              202.0
            ],
            [
              563.0,
              202.0
            ]
          ]
        }
      },
      "geometry": {
        "type": "LineString",
        "coordinates": [
          [
            120.08382843282824,
            30.31161012784514
          ],
          [
            120.08383001554097,
            30.311570330232975
          ]
        ]
      }
    },
    {
      "type": "Feature",
      "id": "e_1f_0026",
      "properties": {
        "id": "e_1f_0026",
        "status": "navigation_draft_not_survey",
        "level_id": "zju2_zijingang_b2_1f",
        "floor": "1F",
        "source": "n_1f_509p5_387",
        "target": "n_o_1f_b2_machine_1",
        "length_m": 0.9796715991159799,
        "walk_seconds": 0.8518883470573739,
        "accessible": "unknown",
        "access_control": "unknown",
        "direction": "bidirectional",
        "routing_status": "draft_enabled",
        "evidence_ids": [
          "plan_1f"
        ],
        "cost_status": "assumed_not_measured",
        "walking_speed_mps": 1.15,
        "geometry_px": {
          "type": "LineString",
          "coordinates": [
            [
              509.5,
              387.0
            ],
            [
              509.5,
              402.0
            ]
          ]
        }
      },
      "geometry": {
        "type": "LineString",
        "coordinates": [
          [
            120.08370331323583,
            30.311598381219483
          ],
          [
            120.08369313412514,
            30.31159829074744
          ]
        ]
      }
    },
    {
      "type": "Feature",
      "id": "e_1f_0027",
      "properties": {
        "id": "e_1f_0027",
        "status": "navigation_draft_not_survey",
        "level_id": "zju2_zijingang_shared_1f",
        "floor": "1F",
        "source": "n_1f_509p5_387",
        "target": "n_1f_563_387",
        "length_m": 3.2371277911794394,
        "walk_seconds": 2.814893731460382,
        "accessible": "unknown",
        "access_control": "unknown",
        "direction": "bidirectional",
        "routing_status": "draft_enabled",
        "evidence_ids": [
          "plan_1f"
        ],
        "cost_status": "assumed_not_measured",
        "walking_speed_mps": 1.15,
        "geometry_px": {
          "type": "LineString",
          "coordinates": [
            [
              509.5,
              387.0
            ],
            [
              563.0,
              387.0
            ]
          ]
        }
      },
      "geometry": {
        "type": "LineString",
        "coordinates": [
          [
            120.08370331323583,
            30.311598381219483
          ],
          [
            120.08370447320598,
            30.31156921447983
          ]
        ]
      }
    },
    {
      "type": "Feature",
      "id": "e_1f_0028",
      "properties": {
        "id": "e_1f_0028",
        "status": "navigation_draft_not_survey",
        "level_id": "zju2_zijingang_b1_1f",
        "floor": "1F",
        "source": "n_1f_563_173",
        "target": "n_1f_563_202",
        "length_m": 1.8940317582627741,
        "walk_seconds": 1.6469841376198038,
        "accessible": "unknown",
        "access_control": "unknown",
        "direction": "bidirectional",
        "routing_status": "draft_enabled",
        "evidence_ids": [
          "plan_1f"
        ],
        "cost_status": "assumed_not_measured",
        "walking_speed_mps": 1.15,
        "geometry_px": {
          "type": "LineString",
          "coordinates": [
            [
              563.0,
              173.0
            ],
            [
              563.0,
              202.0
            ]
          ]
        }
      },
      "geometry": {
        "type": "LineString",
        "coordinates": [
          [
            120.08384969515146,
            30.311570505123893
          ],
          [
            120.08383001554097,
            30.311570330232975
          ]
        ]
      }
    },
    {
      "type": "Feature",
      "id": "e_1f_0029",
      "properties": {
        "id": "e_1f_0029",
        "status": "navigation_draft_not_survey",
        "level_id": "zju2_zijingang_b1_1f",
        "floor": "1F",
        "source": "n_1f_563_202",
        "target": "n_1f_563_387",
        "length_m": 12.082616388765183,
        "walk_seconds": 10.506622946752334,
        "accessible": "unknown",
        "access_control": "unknown",
        "direction": "bidirectional",
        "routing_status": "draft_enabled",
        "evidence_ids": [
          "plan_1f"
        ],
        "cost_status": "assumed_not_measured",
        "walking_speed_mps": 1.15,
        "geometry_px": {
          "type": "LineString",
          "coordinates": [
            [
              563.0,
              202.0
            ],
            [
              563.0,
              387.0
            ]
          ]
        }
      },
      "geometry": {
        "type": "LineString",
        "coordinates": [
          [
            120.08383001554097,
            30.311570330232975
          ],
          [
            120.08370447320598,
            30.31156921447983
          ]
        ]
      }
    },
    {
      "type": "Feature",
      "id": "e_1f_0030",
      "properties": {
        "id": "e_1f_0030",
        "status": "navigation_draft_not_survey",
        "level_id": "zju2_zijingang_b1_1f",
        "floor": "1F",
        "source": "n_1f_563_387",
        "target": "n_1f_917_387",
        "length_m": 21.419499776027994,
        "walk_seconds": 18.625651979154778,
        "accessible": "unknown",
        "access_control": "unknown",
        "direction": "bidirectional",
        "routing_status": "draft_enabled",
        "evidence_ids": [
          "plan_1f"
        ],
        "cost_status": "assumed_not_measured",
        "walking_speed_mps": 1.15,
        "geometry_px": {
          "type": "LineString",
          "coordinates": [
            [
              563.0,
              387.0
            ],
            [
              917.0,
              387.0
            ]
          ]
        }
      },
      "geometry": {
        "type": "LineString",
        "coordinates": [
          [
            120.08370447320598,
            30.31156921447983
          ],
          [
            120.08371214848631,
            30.311376223338492
          ]
        ]
      }
    },
    {
      "type": "Feature",
      "id": "e_1f_0031",
      "properties": {
        "id": "e_1f_0031",
        "status": "navigation_draft_not_survey",
        "level_id": "zju2_zijingang_b1_1f",
        "floor": "1F",
        "source": "n_o_1f_b1_129",
        "target": "n_1f_687_209",
        "length_m": 1.6941977226346645,
        "walk_seconds": 1.4732154109866649,
        "accessible": "unknown",
        "access_control": "unknown",
        "direction": "bidirectional",
        "routing_status": "draft_enabled",
        "evidence_ids": [
          "plan_1f"
        ],
        "cost_status": "assumed_not_measured",
        "walking_speed_mps": 1.15,
        "geometry_px": {
          "type": "LineString",
          "coordinates": [
            [
              659.0,
              209.0
            ],
            [
              687.0,
              209.0
            ]
          ]
        }
      },
      "geometry": {
        "type": "LineString",
        "coordinates": [
          [
            120.08382734666434,
            30.311517951431384
          ],
          [
            120.0838279537309,
            30.311502686593663
          ]
        ]
      }
    },
    {
      "type": "Feature",
      "id": "e_1f_0032",
      "properties": {
        "id": "e_1f_0032",
        "status": "navigation_draft_not_survey",
        "level_id": "zju2_zijingang_b1_1f",
        "floor": "1F",
        "source": "n_o_1f_b1_127",
        "target": "n_1f_687_251",
        "length_m": 1.694197722634409,
        "walk_seconds": 1.4732154109864426,
        "accessible": "unknown",
        "access_control": "unknown",
        "direction": "bidirectional",
        "routing_status": "draft_enabled",
        "evidence_ids": [
          "plan_1f"
        ],
        "cost_status": "assumed_not_measured",
        "walking_speed_mps": 1.15,
        "geometry_px": {
          "type": "LineString",
          "coordinates": [
            [
              659.0,
              251.0
            ],
            [
              687.0,
              251.0
            ]
          ]
        }
      },
      "geometry": {
        "type": "LineString",
        "coordinates": [
          [
            120.08379884517532,
            30.31151769813626
          ],
          [
            120.0837994522463,
            30.311502433298955
          ]
        ]
      }
    },
    {
      "type": "Feature",
      "id": "e_1f_0033",
      "properties": {
        "id": "e_1f_0033",
        "status": "navigation_draft_not_survey",
        "level_id": "zju2_zijingang_b1_1f",
        "floor": "1F",
        "source": "n_o_1f_b1_125",
        "target": "n_1f_687_325",
        "length_m": 1.6941977221687656,
        "walk_seconds": 1.4732154105815354,
        "accessible": "unknown",
        "access_control": "unknown",
        "direction": "bidirectional",
        "routing_status": "draft_enabled",
        "evidence_ids": [
          "plan_1f"
        ],
        "cost_status": "assumed_not_measured",
        "walking_speed_mps": 1.15,
        "geometry_px": {
          "type": "LineString",
          "coordinates": [
            [
              659.0,
              325.0
            ],
            [
              687.0,
              325.0
            ]
          ]
        }
      },
      "geometry": {
        "type": "LineString",
        "coordinates": [
          [
            120.08374862826776,
            30.31151725183924
          ],
          [
            120.08374923534652,
            30.311501987002686
          ]
        ]
      }
    },
    {
      "type": "Feature",
      "id": "e_1f_0034",
      "properties": {
        "id": "e_1f_0034",
        "status": "navigation_draft_not_survey",
        "level_id": "zju2_zijingang_b1_1f",
        "floor": "1F",
        "source": "n_o_1f_b1_stair_s",
        "target": "n_1f_688_610",
        "length_m": 1.633690660812656,
        "walk_seconds": 1.420600574619701,
        "accessible": "unknown",
        "access_control": "unknown",
        "direction": "bidirectional",
        "routing_status": "draft_enabled",
        "evidence_ids": [
          "plan_1f"
        ],
        "cost_status": "assumed_not_measured",
        "walking_speed_mps": 1.15,
        "geometry_px": {
          "type": "LineString",
          "coordinates": [
            [
              661.0,
              610.0
            ],
            [
              688.0,
              610.0
            ]
          ]
        }
      },
      "geometry": {
        "type": "LineString",
        "coordinates": [
          [
            120.08355526869786,
            30.311514442467228
          ],
          [
            120.08355585412406,
            30.311499722806168
          ]
        ]
      }
    },
    {
      "type": "Feature",
      "id": "e_1f_0035",
      "properties": {
        "id": "e_1f_0035",
        "status": "navigation_draft_not_survey",
        "level_id": "zju2_zijingang_b1_1f",
        "floor": "1F",
        "source": "n_o_1f_b1_stair_n",
        "target": "n_1f_687_130",
        "length_m": 0.6655776763169494,
        "walk_seconds": 0.5787631967973473,
        "accessible": "unknown",
        "access_control": "unknown",
        "direction": "bidirectional",
        "routing_status": "draft_enabled",
        "evidence_ids": [
          "plan_1f"
        ],
        "cost_status": "assumed_not_measured",
        "walking_speed_mps": 1.15,
        "geometry_px": {
          "type": "LineString",
          "coordinates": [
            [
              676.0,
              130.0
            ],
            [
              687.0,
              130.0
            ]
          ]
        }
      },
      "geometry": {
        "type": "LineString",
        "coordinates": [
          [
            120.08388132518097,
            30.311509159912983
          ],
          [
            120.08388156366809,
            30.31150316301214
          ]
        ]
      }
    },
    {
      "type": "Feature",
      "id": "e_1f_0036",
      "properties": {
        "id": "e_1f_0036",
        "status": "navigation_draft_not_survey",
        "level_id": "zju2_zijingang_b1_1f",
        "floor": "1F",
        "source": "n_1f_687_69",
        "target": "n_1f_687_130",
        "length_m": 3.983997836280404,
        "walk_seconds": 3.464345944591656,
        "accessible": "unknown",
        "access_control": "unknown",
        "direction": "bidirectional",
        "routing_status": "draft_enabled",
        "evidence_ids": [
          "plan_1f"
        ],
        "cost_status": "assumed_not_measured",
        "walking_speed_mps": 1.15,
        "geometry_px": {
          "type": "LineString",
          "coordinates": [
            [
              687.0,
              69.0
            ],
            [
              687.0,
              130.0
            ]
          ]
        }
      },
      "geometry": {
        "type": "LineString",
        "coordinates": [
          [
            120.08392295868457,
            30.311503530864524
          ],
          [
            120.08388156366809,
            30.31150316301214
          ]
        ]
      }
    },
    {
      "type": "Feature",
      "id": "e_1f_0037",
      "properties": {
        "id": "e_1f_0037",
        "status": "navigation_draft_not_survey",
        "level_id": "zju2_zijingang_b1_1f",
        "floor": "1F",
        "source": "n_1f_687_130",
        "target": "n_1f_687_209",
        "length_m": 5.15960375520224,
        "walk_seconds": 4.486611961045426,
        "accessible": "unknown",
        "access_control": "unknown",
        "direction": "bidirectional",
        "routing_status": "draft_enabled",
        "evidence_ids": [
          "plan_1f"
        ],
        "cost_status": "assumed_not_measured",
        "walking_speed_mps": 1.15,
        "geometry_px": {
          "type": "LineString",
          "coordinates": [
            [
              687.0,
              130.0
            ],
            [
              687.0,
              209.0
            ]
          ]
        }
      },
      "geometry": {
        "type": "LineString",
        "coordinates": [
          [
            120.08388156366809,
            30.31150316301214
          ],
          [
            120.0838279537309,
            30.311502686593663
          ]
        ]
      }
    },
    {
      "type": "Feature",
      "id": "e_1f_0038",
      "properties": {
        "id": "e_1f_0038",
        "status": "navigation_draft_not_survey",
        "level_id": "zju2_zijingang_b1_1f",
        "floor": "1F",
        "source": "n_1f_687_209",
        "target": "n_1f_687_251",
        "length_m": 2.7430804774694835,
        "walk_seconds": 2.3852873717125944,
        "accessible": "unknown",
        "access_control": "unknown",
        "direction": "bidirectional",
        "routing_status": "draft_enabled",
        "evidence_ids": [
          "plan_1f"
        ],
        "cost_status": "assumed_not_measured",
        "walking_speed_mps": 1.15,
        "geometry_px": {
          "type": "LineString",
          "coordinates": [
            [
              687.0,
              209.0
            ],
            [
              687.0,
              251.0
            ]
          ]
        }
      },
      "geometry": {
        "type": "LineString",
        "coordinates": [
          [
            120.0838279537309,
            30.311502686593663
          ],
          [
            120.0837994522463,
            30.311502433298955
          ]
        ]
      }
    },
    {
      "type": "Feature",
      "id": "e_1f_0039",
      "properties": {
        "id": "e_1f_0039",
        "status": "navigation_draft_not_survey",
        "level_id": "zju2_zijingang_b1_1f",
        "floor": "1F",
        "source": "n_1f_687_251",
        "target": "n_1f_687_325",
        "length_m": 4.833046555516213,
        "walk_seconds": 4.202649178709751,
        "accessible": "unknown",
        "access_control": "unknown",
        "direction": "bidirectional",
        "routing_status": "draft_enabled",
        "evidence_ids": [
          "plan_1f"
        ],
        "cost_status": "assumed_not_measured",
        "walking_speed_mps": 1.15,
        "geometry_px": {
          "type": "LineString",
          "coordinates": [
            [
              687.0,
              251.0
            ],
            [
              687.0,
              325.0
            ]
          ]
        }
      },
      "geometry": {
        "type": "LineString",
        "coordinates": [
          [
            120.0837994522463,
            30.311502433298955
          ],
          [
            120.08374923534652,
            30.311501987002686
          ]
        ]
      }
    },
    {
      "type": "Feature",
      "id": "e_1f_0040",
      "properties": {
        "id": "e_1f_0040",
        "status": "navigation_draft_not_survey",
        "level_id": "zju2_zijingang_b1_1f",
        "floor": "1F",
        "source": "n_1f_687_325",
        "target": "n_1f_687_361",
        "length_m": 2.3512118377998714,
        "walk_seconds": 2.0445320328694536,
        "accessible": "unknown",
        "access_control": "unknown",
        "direction": "bidirectional",
        "routing_status": "draft_enabled",
        "evidence_ids": [
          "plan_1f"
        ],
        "cost_status": "assumed_not_measured",
        "walking_speed_mps": 1.15,
        "geometry_px": {
          "type": "LineString",
          "coordinates": [
            [
              687.0,
              325.0
            ],
            [
              687.0,
              361.0
            ]
          ]
        }
      },
      "geometry": {
        "type": "LineString",
        "coordinates": [
          [
            120.08374923534652,
            30.311501987002686
          ],
          [
            120.08372480550415,
            30.311501769878607
          ]
        ]
      }
    },
    {
      "type": "Feature",
      "id": "e_1f_0041",
      "properties": {
        "id": "e_1f_0041",
        "status": "navigation_draft_not_survey",
        "level_id": "zju2_zijingang_b1_1f",
        "floor": "1F",
        "source": "n_1f_687_361",
        "target": "n_1f_880_361",
        "length_m": 11.677862872043804,
        "walk_seconds": 10.154663366994612,
        "accessible": "unknown",
        "access_control": "unknown",
        "direction": "bidirectional",
        "routing_status": "draft_enabled",
        "evidence_ids": [
          "plan_1f"
        ],
        "cost_status": "assumed_not_measured",
        "walking_speed_mps": 1.15,
        "geometry_px": {
          "type": "LineString",
          "coordinates": [
            [
              687.0,
              361.0
            ],
            [
              880.0,
              361.0
            ]
          ]
        }
      },
      "geometry": {
        "type": "LineString",
        "coordinates": [
          [
            120.08372480550415,
            30.311501769878607
          ],
          [
            120.08372899002659,
            30.311396551542195
          ]
        ]
      }
    },
    {
      "type": "Feature",
      "id": "e_1f_0042",
      "properties": {
        "id": "e_1f_0042",
        "status": "navigation_draft_not_survey",
        "level_id": "zju2_zijingang_b1_1f",
        "floor": "1F",
        "source": "n_1f_688_566",
        "target": "n_1f_688_610",
        "length_m": 2.8737033573205535,
        "walk_seconds": 2.4988724846265686,
        "accessible": "unknown",
        "access_control": "unknown",
        "direction": "bidirectional",
        "routing_status": "draft_enabled",
        "evidence_ids": [
          "plan_1f"
        ],
        "cost_status": "assumed_not_measured",
        "walking_speed_mps": 1.15,
        "geometry_px": {
          "type": "LineString",
          "coordinates": [
            [
              688.0,
              566.0
            ],
            [
              688.0,
              610.0
            ]
          ]
        }
      },
      "geometry": {
        "type": "LineString",
        "coordinates": [
          [
            120.08358571281593,
            30.311499988217978
          ],
          [
            120.08355585412406,
            30.311499722806168
          ]
        ]
      }
    },
    {
      "type": "Feature",
      "id": "e_1f_0043",
      "properties": {
        "id": "e_1f_0043",
        "status": "navigation_draft_not_survey",
        "level_id": "zju2_zijingang_b1_1f",
        "floor": "1F",
        "source": "n_1f_688_566",
        "target": "n_1f_917_566",
        "length_m": 13.85611708646068,
        "walk_seconds": 12.048797466487548,
        "accessible": "unknown",
        "access_control": "unknown",
        "direction": "bidirectional",
        "routing_status": "draft_enabled",
        "evidence_ids": [
          "plan_1f"
        ],
        "cost_status": "assumed_not_measured",
        "walking_speed_mps": 1.15,
        "geometry_px": {
          "type": "LineString",
          "coordinates": [
            [
              688.0,
              566.0
            ],
            [
              917.0,
              566.0
            ]
          ]
        }
      },
      "geometry": {
        "type": "LineString",
        "coordinates": [
          [
            120.08358571281593,
            30.311499988217978
          ],
          [
            120.08359067804489,
            30.31137514367995
          ]
        ]
      }
    },
    {
      "type": "Feature",
      "id": "e_1f_0044",
      "properties": {
        "id": "e_1f_0044",
        "status": "navigation_draft_not_survey",
        "level_id": "zju2_zijingang_b1_1f",
        "floor": "1F",
        "source": "n_1f_688_610",
        "target": "n_1f_688_611",
        "length_m": 0.0653114399328855,
        "walk_seconds": 0.056792556463378704,
        "accessible": "unknown",
        "access_control": "unknown",
        "direction": "bidirectional",
        "routing_status": "draft_enabled",
        "evidence_ids": [
          "plan_1f"
        ],
        "cost_status": "assumed_not_measured",
        "walking_speed_mps": 1.15,
        "geometry_px": {
          "type": "LineString",
          "coordinates": [
            [
              688.0,
              610.0
            ],
            [
              688.0,
              611.0
            ]
          ]
        }
      },
      "geometry": {
        "type": "LineString",
        "coordinates": [
          [
            120.08355585412406,
            30.311499722806168
          ],
          [
            120.08355517551743,
            30.311499716773998
          ]
        ]
      }
    },
    {
      "type": "Feature",
      "id": "e_1f_0045",
      "properties": {
        "id": "e_1f_0045",
        "status": "navigation_draft_not_survey",
        "level_id": "zju2_zijingang_b1_1f",
        "floor": "1F",
        "source": "n_1f_688_611",
        "target": "n_1f_688_615",
        "length_m": 0.2612457597603411,
        "walk_seconds": 0.22717022587855748,
        "accessible": "unknown",
        "access_control": "unknown",
        "direction": "bidirectional",
        "routing_status": "draft_enabled",
        "evidence_ids": [
          "plan_1f"
        ],
        "cost_status": "assumed_not_measured",
        "walking_speed_mps": 1.15,
        "geometry_px": {
          "type": "LineString",
          "coordinates": [
            [
              688.0,
              611.0
            ],
            [
              688.0,
              615.0
            ]
          ]
        }
      },
      "geometry": {
        "type": "LineString",
        "coordinates": [
          [
            120.08355517551743,
            30.311499716773998
          ],
          [
            120.08355246109095,
            30.311499692645306
          ]
        ]
      }
    },
    {
      "type": "Feature",
      "id": "e_1f_0046",
      "properties": {
        "id": "e_1f_0046",
        "status": "navigation_draft_not_survey",
        "level_id": "zju2_zijingang_b1_1f",
        "floor": "1F",
        "source": "n_1f_688_611",
        "target": "n_o_1f_b1_laboratory",
        "length_m": 1.2706482917429212,
        "walk_seconds": 1.1049115580373228,
        "accessible": "unknown",
        "access_control": "unknown",
        "direction": "bidirectional",
        "routing_status": "draft_enabled",
        "evidence_ids": [
          "plan_1f"
        ],
        "cost_status": "assumed_not_measured",
        "walking_speed_mps": 1.15,
        "geometry_px": {
          "type": "LineString",
          "coordinates": [
            [
              688.0,
              611.0
            ],
            [
              709.0,
              611.0
            ]
          ]
        }
      },
      "geometry": {
        "type": "LineString",
        "coordinates": [
          [
            120.08355517551743,
            30.311499716773998
          ],
          [
            120.08355563084876,
            30.311488268148715
          ]
        ]
      }
    },
    {
      "type": "Feature",
      "id": "e_1f_0047",
      "properties": {
        "id": "e_1f_0047",
        "status": "navigation_draft_not_survey",
        "level_id": "zju2_zijingang_b1_1f",
        "floor": "1F",
        "source": "n_o_1f_b1_emergency_a",
        "target": "n_1f_880_361",
        "length_m": 1.1102944789670501,
        "walk_seconds": 0.965473459971348,
        "accessible": "unknown",
        "access_control": "unknown",
        "direction": "bidirectional",
        "routing_status": "draft_enabled",
        "evidence_ids": [
          "plan_1f"
        ],
        "cost_status": "assumed_not_measured",
        "walking_speed_mps": 1.15,
        "geometry_px": {
          "type": "LineString",
          "coordinates": [
            [
              880.0,
              344.0
            ],
            [
              880.0,
              361.0
            ]
          ]
        }
      },
      "geometry": {
        "type": "LineString",
        "coordinates": [
          [
            120.08374052632868,
            30.311396654072396
          ],
          [
            120.08372899002659,
            30.311396551542195
          ]
        ]
      }
    },
    {
      "type": "Feature",
      "id": "e_1f_0048",
      "properties": {
        "id": "e_1f_0048",
        "status": "navigation_draft_not_survey",
        "level_id": "zju2_zijingang_b1_1f",
        "floor": "1F",
        "source": "n_1f_880_361",
        "target": "n_1f_917_361",
        "length_m": 2.2387612762386278,
        "walk_seconds": 1.9467489358596766,
        "accessible": "unknown",
        "access_control": "unknown",
        "direction": "bidirectional",
        "routing_status": "draft_enabled",
        "evidence_ids": [
          "plan_1f"
        ],
        "cost_status": "assumed_not_measured",
        "walking_speed_mps": 1.15,
        "geometry_px": {
          "type": "LineString",
          "coordinates": [
            [
              880.0,
              361.0
            ],
            [
              917.0,
              361.0
            ]
          ]
        }
      },
      "geometry": {
        "type": "LineString",
        "coordinates": [
          [
            120.08372899002659,
            30.311396551542195
          ],
          [
            120.08372979223861,
            30.31137638015102
          ]
        ]
      }
    },
    {
      "type": "Feature",
      "id": "e_1f_0049",
      "properties": {
        "id": "e_1f_0049",
        "status": "navigation_draft_not_survey",
        "level_id": "zju2_zijingang_b1_1f",
        "floor": "1F",
        "source": "n_1f_917_361",
        "target": "n_1f_917_387",
        "length_m": 1.698097438413418,
        "walk_seconds": 1.476606468185581,
        "accessible": "unknown",
        "access_control": "unknown",
        "direction": "bidirectional",
        "routing_status": "draft_enabled",
        "evidence_ids": [
          "plan_1f"
        ],
        "cost_status": "assumed_not_measured",
        "walking_speed_mps": 1.15,
        "geometry_px": {
          "type": "LineString",
          "coordinates": [
            [
              917.0,
              361.0
            ],
            [
              917.0,
              387.0
            ]
          ]
        }
      },
      "geometry": {
        "type": "LineString",
        "coordinates": [
          [
            120.08372979223861,
            30.31137638015102
          ],
          [
            120.08371214848631,
            30.311376223338492
          ]
        ]
      }
    },
    {
      "type": "Feature",
      "id": "e_1f_0050",
      "properties": {
        "id": "e_1f_0050",
        "status": "navigation_draft_not_survey",
        "level_id": "zju2_zijingang_b1_1f",
        "floor": "1F",
        "source": "n_1f_917_387",
        "target": "n_1f_917_460",
        "length_m": 4.767735115576127,
        "walk_seconds": 4.145856622240111,
        "accessible": "unknown",
        "access_control": "unknown",
        "direction": "bidirectional",
        "routing_status": "draft_enabled",
        "evidence_ids": [
          "plan_1f"
        ],
        "cost_status": "assumed_not_measured",
        "walking_speed_mps": 1.15,
        "geometry_px": {
          "type": "LineString",
          "coordinates": [
            [
              917.0,
              387.0
            ],
            [
              917.0,
              460.0
            ]
          ]
        }
      },
      "geometry": {
        "type": "LineString",
        "coordinates": [
          [
            120.08371214848631,
            30.311376223338492
          ],
          [
            120.08366261026009,
            30.31137578304444
          ]
        ]
      }
    },
    {
      "type": "Feature",
      "id": "e_1f_0051",
      "properties": {
        "id": "e_1f_0051",
        "status": "navigation_draft_not_survey",
        "level_id": "zju2_zijingang_b1_1f",
        "floor": "1F",
        "source": "n_1f_917_460",
        "target": "n_1f_917_566",
        "length_m": 6.923012633562943,
        "walk_seconds": 6.020010985706908,
        "accessible": "unknown",
        "access_control": "unknown",
        "direction": "bidirectional",
        "routing_status": "draft_enabled",
        "evidence_ids": [
          "plan_1f"
        ],
        "cost_status": "assumed_not_measured",
        "walking_speed_mps": 1.15,
        "geometry_px": {
          "type": "LineString",
          "coordinates": [
            [
              917.0,
              460.0
            ],
            [
              917.0,
              566.0
            ]
          ]
        }
      },
      "geometry": {
        "type": "LineString",
        "coordinates": [
          [
            120.08366261026009,
            30.31137578304444
          ],
          [
            120.08359067804489,
            30.31137514367995
          ]
        ]
      }
    },
    {
      "type": "Feature",
      "id": "e_1f_0052",
      "properties": {
        "id": "e_1f_0052",
        "status": "navigation_draft_not_survey",
        "level_id": "zju2_zijingang_b1_1f",
        "floor": "1F",
        "source": "n_1f_917_460",
        "target": "n_1f_994_460",
        "length_m": 4.6590437365463515,
        "walk_seconds": 4.051342379605523,
        "accessible": "unknown",
        "access_control": "unknown",
        "direction": "bidirectional",
        "routing_status": "draft_enabled",
        "evidence_ids": [
          "plan_1f"
        ],
        "cost_status": "assumed_not_measured",
        "walking_speed_mps": 1.15,
        "geometry_px": {
          "type": "LineString",
          "coordinates": [
            [
              917.0,
              460.0
            ],
            [
              994.0,
              460.0
            ]
          ]
        }
      },
      "geometry": {
        "type": "LineString",
        "coordinates": [
          [
            120.08366261026009,
            30.31137578304444
          ],
          [
            120.08366427975469,
            30.311333804746372
          ]
        ]
      }
    },
    {
      "type": "Feature",
      "id": "e_1f_0053",
      "properties": {
        "id": "e_1f_0053",
        "status": "navigation_draft_not_survey",
        "level_id": "zju2_zijingang_b1_1f",
        "floor": "1F",
        "source": "n_1f_917_566",
        "target": "n_o_1f_b1_entrance",
        "length_m": 1.1102944789889508,
        "walk_seconds": 0.9654734599903921,
        "accessible": "unknown",
        "access_control": "unknown",
        "direction": "bidirectional",
        "routing_status": "draft_enabled",
        "evidence_ids": [
          "plan_1f"
        ],
        "cost_status": "assumed_not_measured",
        "walking_speed_mps": 1.15,
        "geometry_px": {
          "type": "LineString",
          "coordinates": [
            [
              917.0,
              566.0
            ],
            [
              917.0,
              583.0
            ]
          ]
        }
      },
      "geometry": {
        "type": "LineString",
        "coordinates": [
          [
            120.08359067804489,
            30.31137514367995
          ],
          [
            120.08357914174663,
            30.311375041136685
          ]
        ]
      }
    },
    {
      "type": "Feature",
      "id": "e_1f_0054",
      "properties": {
        "id": "e_1f_0054",
        "status": "navigation_draft_not_survey",
        "level_id": "zju2_zijingang_b1_1f",
        "floor": "1F",
        "source": "n_o_1f_b1_entrance",
        "target": "n_1f_917_623",
        "length_m": 2.6124575975602125,
        "walk_seconds": 2.271702258748011,
        "accessible": "unknown",
        "access_control": "unknown",
        "direction": "bidirectional",
        "routing_status": "draft_enabled",
        "evidence_ids": [
          "plan_1f"
        ],
        "cost_status": "assumed_not_measured",
        "walking_speed_mps": 1.15,
        "geometry_px": {
          "type": "LineString",
          "coordinates": [
            [
              917.0,
              583.0
            ],
            [
              917.0,
              623.0
            ]
          ]
        }
      },
      "geometry": {
        "type": "LineString",
        "coordinates": [
          [
            120.08357914174663,
            30.311375041136685
          ],
          [
            120.08355199751587,
            30.31137479985438
          ]
        ]
      }
    },
    {
      "type": "Feature",
      "id": "e_1f_0055",
      "properties": {
        "id": "e_1f_0055",
        "status": "navigation_draft_not_survey",
        "level_id": "zju2_zijingang_b1_1f",
        "floor": "1F",
        "source": "n_1f_984_438",
        "target": "n_1f_994_460",
        "length_m": 1.545475328654506,
        "walk_seconds": 1.343891590134353,
        "accessible": "unknown",
        "access_control": "unknown",
        "direction": "bidirectional",
        "routing_status": "draft_enabled",
        "evidence_ids": [
          "plan_1f"
        ],
        "cost_status": "assumed_not_measured",
        "walking_speed_mps": 1.15,
        "geometry_px": {
          "type": "LineString",
          "coordinates": [
            [
              984.0,
              438.0
            ],
            [
              994.0,
              460.0
            ]
          ]
        }
      },
      "geometry": {
        "type": "LineString",
        "coordinates": [
          [
            120.08367899226009,
            30.31133938916622
          ],
          [
            120.08366427975469,
            30.311333804746372
          ]
        ]
      }
    },
    {
      "type": "Feature",
      "id": "e_1f_0056",
      "properties": {
        "id": "e_1f_0056",
        "status": "navigation_draft_not_survey",
        "level_id": "zju2_zijingang_b1_1f",
        "floor": "1F",
        "source": "n_1f_984_438",
        "target": "n_o_1f_b1_infusion",
        "length_m": 1.7669406007176265,
        "walk_seconds": 1.5364700875805448,
        "accessible": "unknown",
        "access_control": "unknown",
        "direction": "bidirectional",
        "routing_status": "draft_enabled",
        "evidence_ids": [
          "plan_1f"
        ],
        "cost_status": "assumed_not_measured",
        "walking_speed_mps": 1.15,
        "geometry_px": {
          "type": "LineString",
          "coordinates": [
            [
              984.0,
              438.0
            ],
            [
              1003.999292,
              418.730377
            ]
          ]
        }
      },
      "geometry": {
        "type": "LineString",
        "coordinates": [
          [
            120.08367899226009,
            30.31133938916622
          ],
          [
            120.08369250235002,
            30.311328602320973
          ]
        ]
      }
    },
    {
      "type": "Feature",
      "id": "e_1f_0057",
      "properties": {
        "id": "e_1f_0057",
        "status": "navigation_draft_not_survey",
        "level_id": "zju2_zijingang_b1_1f",
        "floor": "1F",
        "source": "n_1f_994_460",
        "target": "n_1f_1025_477",
        "length_m": 2.156405526079894,
        "walk_seconds": 1.8751352400694734,
        "accessible": "unknown",
        "access_control": "unknown",
        "direction": "bidirectional",
        "routing_status": "draft_enabled",
        "evidence_ids": [
          "plan_1f"
        ],
        "cost_status": "assumed_not_measured",
        "walking_speed_mps": 1.15,
        "geometry_px": {
          "type": "LineString",
          "coordinates": [
            [
              994.0,
              460.0
            ],
            [
              1025.0,
              477.0
            ]
          ]
        }
      },
      "geometry": {
        "type": "LineString",
        "coordinates": [
          [
            120.08366427975469,
            30.311333804746372
          ],
          [
            120.08365341559596,
            30.311316801856236
          ]
        ]
      }
    },
    {
      "type": "Feature",
      "id": "e_1f_0058",
      "properties": {
        "id": "e_1f_0058",
        "status": "navigation_draft_not_survey",
        "level_id": "zju2_zijingang_b1_1f",
        "floor": "1F",
        "source": "n_1f_1025_477",
        "target": "n_1f_1097_550",
        "length_m": 6.379909256051575,
        "walk_seconds": 5.547747179175283,
        "accessible": "unknown",
        "access_control": "unknown",
        "direction": "bidirectional",
        "routing_status": "draft_enabled",
        "evidence_ids": [
          "plan_1f"
        ],
        "cost_status": "assumed_not_measured",
        "walking_speed_mps": 1.15,
        "geometry_px": {
          "type": "LineString",
          "coordinates": [
            [
              1025.0,
              477.0
            ],
            [
              1097.0,
              550.0
            ]
          ]
        }
      },
      "geometry": {
        "type": "LineString",
        "coordinates": [
          [
            120.08365341559596,
            30.311316801856236
          ],
          [
            120.0836054385082,
            30.311277109109206
          ]
        ]
      }
    },
    {
      "type": "Feature",
      "id": "e_1f_0059",
      "properties": {
        "id": "e_1f_0059",
        "status": "navigation_draft_not_survey",
        "level_id": "zju2_zijingang_b1_1f",
        "floor": "1F",
        "source": "n_1f_1097_550",
        "target": "n_1f_1178_499",
        "length_m": 5.9922388069633294,
        "walk_seconds": 5.210642440837678,
        "accessible": "unknown",
        "access_control": "unknown",
        "direction": "bidirectional",
        "routing_status": "draft_enabled",
        "evidence_ids": [
          "plan_1f"
        ],
        "cost_status": "assumed_not_measured",
        "walking_speed_mps": 1.15,
        "geometry_px": {
          "type": "LineString",
          "coordinates": [
            [
              1097.0,
              550.0
            ],
            [
              1178.0,
              499.0
            ]
          ]
        }
      },
      "geometry": {
        "type": "LineString",
        "coordinates": [
          [
            120.0836054385082,
            30.311277109109206
          ],
          [
            120.08364180359557,
            30.311233257738124
          ]
        ]
      }
    },
    {
      "type": "Feature",
      "id": "e_1f_0060",
      "properties": {
        "id": "e_1f_0060",
        "status": "navigation_draft_not_survey",
        "level_id": "zju2_zijingang_b1_1f",
        "floor": "1F",
        "source": "n_o_1f_b1_observation",
        "target": "n_1f_1154_510",
        "length_m": 1.8129434298389635,
        "walk_seconds": 1.5764725476860553,
        "accessible": "unknown",
        "access_control": "unknown",
        "direction": "bidirectional",
        "routing_status": "draft_enabled",
        "evidence_ids": [
          "plan_1f"
        ],
        "cost_status": "assumed_not_measured",
        "walking_speed_mps": 1.15,
        "geometry_px": {
          "type": "LineString",
          "coordinates": [
            [
              1129.153558,
              493.918314
            ],
            [
              1154.0,
              510.0
            ]
          ]
        }
      },
      "geometry": {
        "type": "LineString",
        "coordinates": [
          [
            120.08364419297465,
            30.311259918135512
          ],
          [
            120.08363381857855,
            30.311246275535055
          ]
        ]
      }
    },
    {
      "type": "Feature",
      "id": "e_1f_0061",
      "properties": {
        "id": "e_1f_0061",
        "status": "navigation_draft_not_survey",
        "level_id": "zju2_zijingang_b1_1f",
        "floor": "1F",
        "source": "n_1f_1154_510",
        "target": "n_1f_1178_499",
        "length_m": 1.635702576886639,
        "walk_seconds": 1.422350066857947,
        "accessible": "unknown",
        "access_control": "unknown",
        "direction": "bidirectional",
        "routing_status": "draft_enabled",
        "evidence_ids": [
          "plan_1f"
        ],
        "cost_status": "assumed_not_measured",
        "walking_speed_mps": 1.15,
        "geometry_px": {
          "type": "LineString",
          "coordinates": [
            [
              1154.0,
              510.0
            ],
            [
              1178.0,
              499.0
            ]
          ]
        }
      },
      "geometry": {
        "type": "LineString",
        "coordinates": [
          [
            120.08363381857855,
            30.311246275535055
          ],
          [
            120.08364180359557,
            30.311233257738124
          ]
        ]
      }
    }
  ]
}
