{
  "type": "FeatureCollection",
  "status": "navigation_draft_not_survey",
  "features": [
    {
      "type": "Feature",
      "id": "zju2_zijingang_b1_3f",
      "properties": {
        "id": "zju2_zijingang_b1_3f",
        "status": "navigation_draft_not_survey",
        "level_id": "zju2_zijingang_b1_3f",
        "facility_id": "zju2_zijingang",
        "building_id": "zju2_zijingang_b1",
        "name": "3F",
        "ordinal": 3,
        "height_m": null,
        "geometry_role": "generalized_occupied_floor_extent_not_wall_survey",
        "absolute_accuracy_m": null,
        "building_confidence": "high",
        "geometry_px": {
          "type": "Polygon",
          "coordinates": [
            [
              [
                53.0,
                39.0
              ],
              [
                103.0,
                39.0
              ],
              [
                103.0,
                17.0
              ],
              [
                137.0,
                17.0
              ],
              [
                137.0,
                39.0
              ],
              [
                270.0,
                39.0
              ],
              [
                270.0,
                647.0
              ],
              [
                53.0,
                647.0
              ],
              [
                53.0,
                574.0
              ],
              [
                21.0,
                574.0
              ],
              [
                21.0,
                528.0
              ],
              [
                53.0,
                528.0
              ],
              [
                53.0,
                147.0
              ],
              [
                23.0,
                147.0
              ],
              [
                23.0,
                101.0
              ],
              [
                53.0,
                101.0
              ],
              [
                53.0,
                39.0
              ]
            ]
          ]
        }
      },
      "geometry": {
        "type": "Polygon",
        "coordinates": [
          [
            [
              120.08394050956367,
              30.311563190276736
            ],
            [
              120.08389358662981,
              30.311562773304807
            ],
            [
              120.08389253334455,
              30.31158088333024
            ],
            [
              120.0838577195497,
              30.3115805739524
            ],
            [
              120.08385877284135,
              30.311562463927654
            ],
            [
              120.08357042389385,
              30.311559901121562
            ],
            [
              120.08356930032635,
              30.31157921847512
            ],
            [
              120.08353448654061,
              30.311578909011196
            ],
            [
              120.08353561011494,
              30.3115595916584
            ],
            [
              120.08348036216351,
              30.311559100534787
            ],
            [
              120.08348798145468,
              30.311428104741832
            ],
            [
              120.08394812824483,
              30.31143219441689
            ],
            [
              120.0839434587348,
              30.311512482202428
            ],
            [
              120.0839601088,
              30.311512630155228
            ],
            [
              120.08395891509198,
              30.31153315485242
            ],
            [
              120.08394226502331,
              30.31153300689925
            ],
            [
              120.08394050956367,
              30.311563190276736
            ]
          ]
        ]
      }
    }
  ]
}
