{
  "type": "FeatureCollection",
  "status": "navigation_draft_not_survey",
  "features": [
    {
      "type": "Feature",
      "id": "3f_b1_main_corridor",
      "properties": {
        "id": "3f_b1_main_corridor",
        "status": "navigation_draft_not_survey",
        "building_id": "zju2_zijingang_b1",
        "name": "主通道",
        "room_ref": null,
        "use_type": "corridor",
        "label_confidence": "high",
        "geometry_confidence": "medium",
        "boundary_role": "generalized_visible_partition_not_wall_survey",
        "evidence_ids": [
          "plan_3f",
          "user_building_statement"
        ],
        "building_confidence": "high",
        "accessible": "unknown",
        "access_control": "unknown",
        "level_id": "zju2_zijingang_b1_3f",
        "floor": "3F",
        "geometry_px": {
          "type": "Polygon",
          "coordinates": [
            [
              [
                127.0,
                40.0
              ],
              [
                127.0,
                102.0
              ],
              [
                137.0,
                102.0
              ],
              [
                137.0,
                112.0
              ],
              [
                127.0,
                112.0
              ],
              [
                127.0,
                147.0
              ],
              [
                127.0,
                221.0
              ],
              [
                127.0,
                282.0
              ],
              [
                127.0,
                314.0
              ],
              [
                127.0,
                377.0
              ],
              [
                127.0,
                416.0
              ],
              [
                127.0,
                488.0
              ],
              [
                127.0,
                528.0
              ],
              [
                112.0,
                528.0
              ],
              [
                112.0,
                529.0
              ],
              [
                125.0,
                529.0
              ],
              [
                125.0,
                574.0
              ],
              [
                127.0,
                574.0
              ],
              [
                127.0,
                630.0
              ],
              [
                210.0,
                630.0
              ],
              [
                210.0,
                586.0
              ],
              [
                210.0,
                537.0
              ],
              [
                170.0,
                537.0
              ],
              [
                170.0,
                477.0
              ],
              [
                170.0,
                445.0
              ],
              [
                170.0,
                434.0
              ],
              [
                170.0,
                391.0
              ],
              [
                170.0,
                350.0
              ],
              [
                170.0,
                337.0
              ],
              [
                170.0,
                302.0
              ],
              [
                170.0,
                265.0
              ],
              [
                170.0,
                246.0
              ],
              [
                170.0,
                211.0
              ],
              [
                217.0,
                211.0
              ],
              [
                219.0,
                211.0
              ],
              [
                219.0,
                166.0
              ],
              [
                180.0,
                166.0
              ],
              [
                180.0,
                130.0
              ],
              [
                209.0,
                130.0
              ],
              [
                209.0,
                87.0
              ],
              [
                209.0,
                40.0
              ],
              [
                127.0,
                40.0
              ]
            ]
          ]
        }
      },
      "geometry": {
        "type": "Polygon",
        "coordinates": [
          [
            [
              120.08394235082207,
              30.3115185121528
            ],
            [
              120.08389542790945,
              30.311518095182915
            ],
            [
              120.08389577900387,
              30.3115120585077
            ],
            [
              120.08388821079281,
              30.311511991252964
            ],
            [
              120.08388785969791,
              30.311518027928134
            ],
            [
              120.0838613709579,
              30.31151779253296
            ],
            [
              120.08380536619525,
              30.31151729482262
            ],
            [
              120.08375920010911,
              30.311516884529844
            ],
            [
              120.08373498183516,
              30.311516669287773
            ],
            [
              120.08368730210972,
              30.311516245516845
            ],
            [
              120.08365778609019,
              30.311515983173745
            ],
            [
              120.08360329497913,
              30.311515498830527
            ],
            [
              120.08357302214075,
              30.31151522974116
            ],
            [
              120.08357249546941,
              30.311524284750735
            ],
            [
              120.08357173864839,
              30.311524278023402
            ],
            [
              120.08357219509695,
              30.311516430348437
            ],
            [
              120.0835381381543,
              30.31151612761428
            ],
            [
              120.08353820837756,
              30.31151492027971
            ],
            [
              120.08349582640636,
              30.311514543531533
            ],
            [
              120.0834987406905,
              30.31146443914913
            ],
            [
              120.0835320407937,
              30.31146473516486
            ],
            [
              120.08356912500066,
              30.311465064808765
            ],
            [
              120.08356772054422,
              30.311489211501033
            ],
            [
              120.08361312978991,
              30.31148961513353
            ],
            [
              120.08363734805498,
              30.311489830397747
            ],
            [
              120.08364567308371,
              30.31148990439377
            ],
            [
              120.08367821637843,
              30.31149019364594
            ],
            [
              120.08370924603236,
              30.311490469436958
            ],
            [
              120.08371908470329,
              30.311490556881363
            ],
            [
              120.0837455734331,
              30.31149079230491
            ],
            [
              120.0837735758053,
              30.311491041175394
            ],
            [
              120.08378795540209,
              30.31149116897143
            ],
            [
              120.08381444413345,
              30.31149140438103
            ],
            [
              120.08381609429878,
              30.311463032009822
            ],
            [
              120.08381616451855,
              30.311461824674865
            ],
            [
              120.08385022144957,
              30.311462127335346
            ],
            [
              120.08384885217173,
              30.311485670367684
            ],
            [
              120.08387609772373,
              30.311485912490397
            ],
            [
              120.08387711589997,
              30.3114684061325
            ],
            [
              120.08390965919327,
              30.31146869532656
            ],
            [
              120.08394522977069,
              30.311469011413134
            ],
            [
              120.08394235082207,
              30.3115185121528
            ]
          ]
        ]
      }
    },
    {
      "type": "Feature",
      "id": "3f_b1_cross_310",
      "properties": {
        "id": "3f_b1_cross_310",
        "status": "navigation_draft_not_survey",
        "building_id": "zju2_zijingang_b1",
        "name": "310/312/314/316 门前横向通道",
        "room_ref": null,
        "use_type": "corridor",
        "label_confidence": "high",
        "geometry_confidence": "medium",
        "boundary_role": "generalized_visible_partition_not_wall_survey",
        "evidence_ids": [
          "plan_3f",
          "user_building_statement"
        ],
        "building_confidence": "high",
        "accessible": "unknown",
        "access_control": "unknown",
        "level_id": "zju2_zijingang_b1_3f",
        "floor": "3F",
        "geometry_px": {
          "type": "Polygon",
          "coordinates": [
            [
              [
                170.0,
                246.0
              ],
              [
                170.0,
                265.0
              ],
              [
                217.0,
                265.0
              ],
              [
                268.0,
                265.0
              ],
              [
                268.0,
                246.0
              ],
              [
                217.0,
                246.0
              ],
              [
                170.0,
                246.0
              ]
            ]
          ]
        }
      },
      "geometry": {
        "type": "Polygon",
        "coordinates": [
          [
            [
              120.08378795540209,
              30.31149116897143
            ],
            [
              120.0837735758053,
              30.311491041175394
            ],
            [
              120.08377522598235,
              30.311462668805476
            ],
            [
              120.08377701659815,
              30.311431881765568
            ],
            [
              120.08379139618634,
              30.311432009560644
            ],
            [
              120.08378960557502,
              30.311462796601052
            ],
            [
              120.08378795540209,
              30.31149116897143
            ]
          ]
        ]
      }
    },
    {
      "type": "Feature",
      "id": "3f_b1_cross_318",
      "properties": {
        "id": "3f_b1_cross_318",
        "status": "navigation_draft_not_survey",
        "building_id": "zju2_zijingang_b1",
        "name": "318/320/322/324 门前横向通道",
        "room_ref": null,
        "use_type": "corridor",
        "label_confidence": "high",
        "geometry_confidence": "medium",
        "boundary_role": "generalized_visible_partition_not_wall_survey",
        "evidence_ids": [
          "plan_3f",
          "user_building_statement"
        ],
        "building_confidence": "high",
        "accessible": "unknown",
        "access_control": "unknown",
        "level_id": "zju2_zijingang_b1_3f",
        "floor": "3F",
        "geometry_px": {
          "type": "Polygon",
          "coordinates": [
            [
              [
                170.0,
                337.0
              ],
              [
                170.0,
                350.0
              ],
              [
                217.0,
                350.0
              ],
              [
                268.0,
                350.0
              ],
              [
                268.0,
                337.0
              ],
              [
                217.0,
                337.0
              ],
              [
                170.0,
                337.0
              ]
            ]
          ]
        }
      },
      "geometry": {
        "type": "Polygon",
        "coordinates": [
          [
            [
              120.08371908470329,
              30.311490556881363
            ],
            [
              120.08370924603236,
              30.311490469436958
            ],
            [
              120.0837108962279,
              30.311462097069068
            ],
            [
              120.08371268686375,
              30.311431310031356
            ],
            [
              120.08372252552877,
              30.311431397475108
            ],
            [
              120.083720734896,
              30.311462184513157
            ],
            [
              120.08371908470329,
              30.311490556881363
            ]
          ]
        ]
      }
    },
    {
      "type": "Feature",
      "id": "3f_b1_cross_326",
      "properties": {
        "id": "3f_b1_cross_326",
        "status": "navigation_draft_not_survey",
        "building_id": "zju2_zijingang_b1",
        "name": "326/328/330 门前横向通道",
        "room_ref": null,
        "use_type": "corridor",
        "label_confidence": "high",
        "geometry_confidence": "medium",
        "boundary_role": "generalized_visible_partition_not_wall_survey",
        "evidence_ids": [
          "plan_3f",
          "user_building_statement"
        ],
        "building_confidence": "high",
        "accessible": "unknown",
        "access_control": "unknown",
        "level_id": "zju2_zijingang_b1_3f",
        "floor": "3F",
        "geometry_px": {
          "type": "Polygon",
          "coordinates": [
            [
              [
                170.0,
                434.0
              ],
              [
                170.0,
                445.0
              ],
              [
                268.0,
                445.0
              ],
              [
                268.0,
                434.0
              ],
              [
                217.0,
                434.0
              ],
              [
                170.0,
                434.0
              ]
            ]
          ]
        }
      },
      "geometry": {
        "type": "Polygon",
        "coordinates": [
          [
            [
              120.08364567308371,
              30.31148990439377
            ],
            [
              120.08363734805498,
              30.311489830397747
            ],
            [
              120.08364078892942,
              30.311430670996852
            ],
            [
              120.08364911395316,
              30.311430744992343
            ],
            [
              120.08364732329751,
              30.311461532027895
            ],
            [
              120.08364567308371,
              30.31148990439377
            ]
          ]
        ]
      }
    },
    {
      "type": "Feature",
      "id": "3f_b1_301",
      "properties": {
        "id": "3f_b1_301",
        "status": "navigation_draft_not_survey",
        "building_id": "zju2_zijingang_b1",
        "name": "一号楼301",
        "room_ref": "301",
        "use_type": "room",
        "label_confidence": "high",
        "geometry_confidence": "medium",
        "boundary_role": "generalized_visible_partition_not_wall_survey",
        "evidence_ids": [
          "plan_3f",
          "user_building_statement"
        ],
        "building_confidence": "high",
        "accessible": "unknown",
        "access_control": "unknown",
        "level_id": "zju2_zijingang_b1_3f",
        "floor": "3F",
        "geometry_px": {
          "type": "Polygon",
          "coordinates": [
            [
              [
                54.0,
                147.0
              ],
              [
                127.0,
                147.0
              ],
              [
                127.0,
                221.0
              ],
              [
                54.0,
                221.0
              ],
              [
                54.0,
                147.0
              ]
            ]
          ]
        }
      },
      "geometry": {
        "type": "Polygon",
        "coordinates": [
          [
            [
              120.08385880795106,
              30.311561860260163
            ],
            [
              120.08380280316345,
              30.31156136254708
            ],
            [
              120.08380536619525,
              30.31151729482262
            ],
            [
              120.0838613709579,
              30.31151779253296
            ],
            [
              120.08385880795106,
              30.311561860260163
            ]
          ]
        ]
      }
    },
    {
      "type": "Feature",
      "id": "3f_b1_303",
      "properties": {
        "id": "3f_b1_303",
        "status": "navigation_draft_not_survey",
        "building_id": "zju2_zijingang_b1",
        "name": "一号楼303",
        "room_ref": "303",
        "use_type": "room",
        "label_confidence": "high",
        "geometry_confidence": "medium",
        "boundary_role": "generalized_visible_partition_not_wall_survey",
        "evidence_ids": [
          "plan_3f",
          "user_building_statement"
        ],
        "building_confidence": "high",
        "accessible": "unknown",
        "access_control": "unknown",
        "level_id": "zju2_zijingang_b1_3f",
        "floor": "3F",
        "geometry_px": {
          "type": "Polygon",
          "coordinates": [
            [
              [
                54.0,
                221.0
              ],
              [
                127.0,
                221.0
              ],
              [
                127.0,
                282.0
              ],
              [
                54.0,
                282.0
              ],
              [
                54.0,
                221.0
              ]
            ]
          ]
        }
      },
      "geometry": {
        "type": "Polygon",
        "coordinates": [
          [
            [
              120.08380280316345,
              30.31156136254708
            ],
            [
              120.08375663705674,
              30.311560952252048
            ],
            [
              120.08375920010911,
              30.311516884529844
            ],
            [
              120.08380536619525,
              30.31151729482262
            ],
            [
              120.08380280316345,
              30.31156136254708
            ]
          ]
        ]
      }
    },
    {
      "type": "Feature",
      "id": "3f_b1_305",
      "properties": {
        "id": "3f_b1_305",
        "status": "navigation_draft_not_survey",
        "building_id": "zju2_zijingang_b1",
        "name": "一号楼305",
        "room_ref": "305",
        "use_type": "room",
        "label_confidence": "high",
        "geometry_confidence": "medium",
        "boundary_role": "generalized_visible_partition_not_wall_survey",
        "evidence_ids": [
          "plan_3f",
          "user_building_statement"
        ],
        "building_confidence": "high",
        "accessible": "unknown",
        "access_control": "unknown",
        "level_id": "zju2_zijingang_b1_3f",
        "floor": "3F",
        "geometry_px": {
          "type": "Polygon",
          "coordinates": [
            [
              [
                54.0,
                282.0
              ],
              [
                127.0,
                282.0
              ],
              [
                127.0,
                314.0
              ],
              [
                54.0,
                314.0
              ],
              [
                54.0,
                282.0
              ]
            ]
          ]
        }
      },
      "geometry": {
        "type": "Polygon",
        "coordinates": [
          [
            [
              120.08375663705674,
              30.311560952252048
            ],
            [
              120.08373241877197,
              30.311560737008794
            ],
            [
              120.08373498183516,
              30.311516669287773
            ],
            [
              120.08375920010911,
              30.311516884529844
            ],
            [
              120.08375663705674,
              30.311560952252048
            ]
          ]
        ]
      }
    },
    {
      "type": "Feature",
      "id": "3f_b1_307",
      "properties": {
        "id": "3f_b1_307",
        "status": "navigation_draft_not_survey",
        "building_id": "zju2_zijingang_b1",
        "name": "一号楼307",
        "room_ref": "307",
        "use_type": "room",
        "label_confidence": "high",
        "geometry_confidence": "medium",
        "boundary_role": "generalized_visible_partition_not_wall_survey",
        "evidence_ids": [
          "plan_3f",
          "user_building_statement"
        ],
        "building_confidence": "high",
        "accessible": "unknown",
        "access_control": "unknown",
        "level_id": "zju2_zijingang_b1_3f",
        "floor": "3F",
        "geometry_px": {
          "type": "Polygon",
          "coordinates": [
            [
              [
                54.0,
                314.0
              ],
              [
                127.0,
                314.0
              ],
              [
                127.0,
                377.0
              ],
              [
                54.0,
                377.0
              ],
              [
                54.0,
                314.0
              ]
            ]
          ]
        }
      },
      "geometry": {
        "type": "Polygon",
        "coordinates": [
          [
            [
              120.08373241877197,
              30.311560737008794
            ],
            [
              120.08368473902529,
              30.311560313235532
            ],
            [
              120.08368730210972,
              30.311516245516845
            ],
            [
              120.08373498183516,
              30.311516669287773
            ],
            [
              120.08373241877197,
              30.311560737008794
            ]
          ]
        ]
      }
    },
    {
      "type": "Feature",
      "id": "3f_b1_309",
      "properties": {
        "id": "3f_b1_309",
        "status": "navigation_draft_not_survey",
        "building_id": "zju2_zijingang_b1",
        "name": "一号楼309",
        "room_ref": "309",
        "use_type": "room",
        "label_confidence": "high",
        "geometry_confidence": "medium",
        "boundary_role": "generalized_visible_partition_not_wall_survey",
        "evidence_ids": [
          "plan_3f",
          "user_building_statement"
        ],
        "building_confidence": "high",
        "accessible": "unknown",
        "access_control": "unknown",
        "level_id": "zju2_zijingang_b1_3f",
        "floor": "3F",
        "geometry_px": {
          "type": "Polygon",
          "coordinates": [
            [
              [
                54.0,
                377.0
              ],
              [
                127.0,
                377.0
              ],
              [
                127.0,
                416.0
              ],
              [
                54.0,
                416.0
              ],
              [
                54.0,
                377.0
              ]
            ]
          ]
        }
      },
      "geometry": {
        "type": "Polygon",
        "coordinates": [
          [
            [
              120.08368473902529,
              30.311560313235532
            ],
            [
              120.08365522299256,
              30.311560050891007
            ],
            [
              120.08365778609019,
              30.311515983173745
            ],
            [
              120.08368730210972,
              30.311516245516845
            ],
            [
              120.08368473902529,
              30.311560313235532
            ]
          ]
        ]
      }
    },
    {
      "type": "Feature",
      "id": "3f_b1_311",
      "properties": {
        "id": "3f_b1_311",
        "status": "navigation_draft_not_survey",
        "building_id": "zju2_zijingang_b1",
        "name": "一号楼311",
        "room_ref": "311",
        "use_type": "room",
        "label_confidence": "high",
        "geometry_confidence": "medium",
        "boundary_role": "generalized_visible_partition_not_wall_survey",
        "evidence_ids": [
          "plan_3f",
          "user_building_statement"
        ],
        "building_confidence": "high",
        "accessible": "unknown",
        "access_control": "unknown",
        "level_id": "zju2_zijingang_b1_3f",
        "floor": "3F",
        "geometry_px": {
          "type": "Polygon",
          "coordinates": [
            [
              [
                54.0,
                416.0
              ],
              [
                127.0,
                416.0
              ],
              [
                127.0,
                488.0
              ],
              [
                54.0,
                488.0
              ],
              [
                54.0,
                416.0
              ]
            ]
          ]
        }
      },
      "geometry": {
        "type": "Polygon",
        "coordinates": [
          [
            [
              120.08365522299256,
              30.311560050891007
            ],
            [
              120.0836007318572,
              30.311559566545125
            ],
            [
              120.08360329497913,
              30.311515498830527
            ],
            [
              120.08365778609019,
              30.311515983173745
            ],
            [
              120.08365522299256,
              30.311560050891007
            ]
          ]
        ]
      }
    },
    {
      "type": "Feature",
      "id": "3f_b1_302",
      "properties": {
        "id": "3f_b1_302",
        "status": "navigation_draft_not_survey",
        "building_id": "zju2_zijingang_b1",
        "name": "一号楼302",
        "room_ref": "302",
        "use_type": "room",
        "label_confidence": "high",
        "geometry_confidence": "medium",
        "boundary_role": "generalized_visible_partition_not_wall_survey",
        "evidence_ids": [
          "plan_3f",
          "user_building_statement"
        ],
        "building_confidence": "high",
        "accessible": "unknown",
        "access_control": "unknown",
        "level_id": "zju2_zijingang_b1_3f",
        "floor": "3F",
        "geometry_px": {
          "type": "Polygon",
          "coordinates": [
            [
              [
                209.0,
                40.0
              ],
              [
                268.0,
                40.0
              ],
              [
                268.0,
                87.0
              ],
              [
                209.0,
                87.0
              ],
              [
                209.0,
                40.0
              ]
            ]
          ]
        }
      },
      "geometry": {
        "type": "Polygon",
        "coordinates": [
          [
            [
              120.08394522977069,
              30.311469011413134
            ],
            [
              120.08390965919327,
              30.31146869532656
            ],
            [
              120.08391173064157,
              30.311433078941764
            ],
            [
              120.08394730120618,
              30.311433395026924
            ],
            [
              120.08394522977069,
              30.311469011413134
            ]
          ]
        ]
      }
    },
    {
      "type": "Feature",
      "id": "3f_b1_304",
      "properties": {
        "id": "3f_b1_304",
        "status": "navigation_draft_not_survey",
        "building_id": "zju2_zijingang_b1",
        "name": "一号楼304",
        "room_ref": "304",
        "use_type": "room",
        "label_confidence": "high",
        "geometry_confidence": "medium",
        "boundary_role": "generalized_visible_partition_not_wall_survey",
        "evidence_ids": [
          "plan_3f",
          "user_building_statement"
        ],
        "building_confidence": "high",
        "accessible": "unknown",
        "access_control": "unknown",
        "level_id": "zju2_zijingang_b1_3f",
        "floor": "3F",
        "geometry_px": {
          "type": "Polygon",
          "coordinates": [
            [
              [
                209.0,
                87.0
              ],
              [
                268.0,
                87.0
              ],
              [
                268.0,
                130.0
              ],
              [
                209.0,
                130.0
              ],
              [
                209.0,
                87.0
              ]
            ]
          ]
        }
      },
      "geometry": {
        "type": "Polygon",
        "coordinates": [
          [
            [
              120.08390965919327,
              30.31146869532656
            ],
            [
              120.08387711589997,
              30.3114684061325
            ],
            [
              120.08387918736003,
              30.311432789748984
            ],
            [
              120.08391173064157,
              30.311433078941764
            ],
            [
              120.08390965919327,
              30.31146869532656
            ]
          ]
        ]
      }
    },
    {
      "type": "Feature",
      "id": "3f_b1_306",
      "properties": {
        "id": "3f_b1_306",
        "status": "navigation_draft_not_survey",
        "building_id": "zju2_zijingang_b1",
        "name": "一号楼306",
        "room_ref": "306",
        "use_type": "room",
        "label_confidence": "high",
        "geometry_confidence": "medium",
        "boundary_role": "generalized_visible_partition_not_wall_survey",
        "evidence_ids": [
          "plan_3f",
          "user_building_statement"
        ],
        "building_confidence": "high",
        "accessible": "unknown",
        "access_control": "unknown",
        "level_id": "zju2_zijingang_b1_3f",
        "floor": "3F",
        "geometry_px": {
          "type": "Polygon",
          "coordinates": [
            [
              [
                180.0,
                130.0
              ],
              [
                219.0,
                130.0
              ],
              [
                219.0,
                166.0
              ],
              [
                180.0,
                166.0
              ],
              [
                180.0,
                130.0
              ]
            ]
          ]
        }
      },
      "geometry": {
        "type": "Polygon",
        "coordinates": [
          [
            [
              120.08387609772373,
              30.311485912490397
            ],
            [
              120.08384885217173,
              30.311485670367684
            ],
            [
              120.08385022144957,
              30.311462127335346
            ],
            [
              120.08387746699509,
              30.31146236945735
            ],
            [
              120.08387609772373,
              30.311485912490397
            ]
          ]
        ]
      }
    },
    {
      "type": "Feature",
      "id": "3f_b1_308",
      "properties": {
        "id": "3f_b1_308",
        "status": "navigation_draft_not_survey",
        "building_id": "zju2_zijingang_b1",
        "name": "一号楼308",
        "room_ref": "308",
        "use_type": "room",
        "label_confidence": "high",
        "geometry_confidence": "medium",
        "boundary_role": "generalized_visible_partition_not_wall_survey",
        "evidence_ids": [
          "plan_3f",
          "user_building_statement"
        ],
        "building_confidence": "high",
        "accessible": "unknown",
        "access_control": "unknown",
        "level_id": "zju2_zijingang_b1_3f",
        "floor": "3F",
        "geometry_px": {
          "type": "Polygon",
          "coordinates": [
            [
              [
                219.0,
                133.0
              ],
              [
                268.0,
                133.0
              ],
              [
                268.0,
                211.0
              ],
              [
                219.0,
                211.0
              ],
              [
                219.0,
                133.0
              ]
            ]
          ]
        }
      },
      "geometry": {
        "type": "Polygon",
        "coordinates": [
          [
            [
              120.08387519653293,
              30.311462349280724
            ],
            [
              120.08381616451855,
              30.311461824674865
            ],
            [
              120.08381788490185,
              30.311432244968508
            ],
            [
              120.08387691689856,
              30.311432769572434
            ],
            [
              120.08387519653293,
              30.311462349280724
            ]
          ]
        ]
      }
    },
    {
      "type": "Feature",
      "id": "3f_b1_310",
      "properties": {
        "id": "3f_b1_310",
        "status": "navigation_draft_not_survey",
        "building_id": "zju2_zijingang_b1",
        "name": "一号楼310",
        "room_ref": "310",
        "use_type": "room",
        "label_confidence": "high",
        "geometry_confidence": "medium",
        "boundary_role": "generalized_visible_partition_not_wall_survey",
        "evidence_ids": [
          "plan_3f",
          "user_building_statement"
        ],
        "building_confidence": "high",
        "accessible": "unknown",
        "access_control": "unknown",
        "level_id": "zju2_zijingang_b1_3f",
        "floor": "3F",
        "geometry_px": {
          "type": "Polygon",
          "coordinates": [
            [
              [
                170.0,
                211.0
              ],
              [
                217.0,
                211.0
              ],
              [
                217.0,
                246.0
              ],
              [
                170.0,
                246.0
              ],
              [
                170.0,
                211.0
              ]
            ]
          ]
        }
      },
      "geometry": {
        "type": "Polygon",
        "coordinates": [
          [
            [
              120.08381444413345,
              30.31149140438103
            ],
            [
              120.08378795540209,
              30.31149116897143
            ],
            [
              120.08378960557502,
              30.311462796601052
            ],
            [
              120.08381609429878,
              30.311463032009822
            ],
            [
              120.08381444413345,
              30.31149140438103
            ]
          ]
        ]
      }
    },
    {
      "type": "Feature",
      "id": "3f_b1_312",
      "properties": {
        "id": "3f_b1_312",
        "status": "navigation_draft_not_survey",
        "building_id": "zju2_zijingang_b1",
        "name": "一号楼312",
        "room_ref": "312",
        "use_type": "room",
        "label_confidence": "high",
        "geometry_confidence": "medium",
        "boundary_role": "generalized_visible_partition_not_wall_survey",
        "evidence_ids": [
          "plan_3f",
          "user_building_statement"
        ],
        "building_confidence": "high",
        "accessible": "unknown",
        "access_control": "unknown",
        "level_id": "zju2_zijingang_b1_3f",
        "floor": "3F",
        "geometry_px": {
          "type": "Polygon",
          "coordinates": [
            [
              [
                217.0,
                211.0
              ],
              [
                268.0,
                211.0
              ],
              [
                268.0,
                246.0
              ],
              [
                217.0,
                246.0
              ],
              [
                217.0,
                211.0
              ]
            ]
          ]
        }
      },
      "geometry": {
        "type": "Polygon",
        "coordinates": [
          [
            [
              120.08381609429878,
              30.311463032009822
            ],
            [
              120.08378960557502,
              30.311462796601052
            ],
            [
              120.08379139618634,
              30.311432009560644
            ],
            [
              120.08381788490185,
              30.311432244968508
            ],
            [
              120.08381609429878,
              30.311463032009822
            ]
          ]
        ]
      }
    },
    {
      "type": "Feature",
      "id": "3f_b1_316",
      "properties": {
        "id": "3f_b1_316",
        "status": "navigation_draft_not_survey",
        "building_id": "zju2_zijingang_b1",
        "name": "一号楼316",
        "room_ref": "316",
        "use_type": "room",
        "label_confidence": "high",
        "geometry_confidence": "medium",
        "boundary_role": "generalized_visible_partition_not_wall_survey",
        "evidence_ids": [
          "plan_3f",
          "user_building_statement"
        ],
        "building_confidence": "high",
        "accessible": "unknown",
        "access_control": "unknown",
        "level_id": "zju2_zijingang_b1_3f",
        "floor": "3F",
        "geometry_px": {
          "type": "Polygon",
          "coordinates": [
            [
              [
                170.0,
                265.0
              ],
              [
                217.0,
                265.0
              ],
              [
                217.0,
                302.0
              ],
              [
                170.0,
                302.0
              ],
              [
                170.0,
                265.0
              ]
            ]
          ]
        }
      },
      "geometry": {
        "type": "Polygon",
        "coordinates": [
          [
            [
              120.0837735758053,
              30.311491041175394
            ],
            [
              120.0837455734331,
              30.31149079230491
            ],
            [
              120.08374722361823,
              30.311462419935875
            ],
            [
              120.08377522598235,
              30.311462668805476
            ],
            [
              120.0837735758053,
              30.311491041175394
            ]
          ]
        ]
      }
    },
    {
      "type": "Feature",
      "id": "3f_b1_314",
      "properties": {
        "id": "3f_b1_314",
        "status": "navigation_draft_not_survey",
        "building_id": "zju2_zijingang_b1",
        "name": "一号楼314",
        "room_ref": "314",
        "use_type": "room",
        "label_confidence": "high",
        "geometry_confidence": "medium",
        "boundary_role": "generalized_visible_partition_not_wall_survey",
        "evidence_ids": [
          "plan_3f",
          "user_building_statement"
        ],
        "building_confidence": "high",
        "accessible": "unknown",
        "access_control": "unknown",
        "level_id": "zju2_zijingang_b1_3f",
        "floor": "3F",
        "geometry_px": {
          "type": "Polygon",
          "coordinates": [
            [
              [
                217.0,
                265.0
              ],
              [
                268.0,
                265.0
              ],
              [
                268.0,
                302.0
              ],
              [
                217.0,
                302.0
              ],
              [
                217.0,
                265.0
              ]
            ]
          ]
        }
      },
      "geometry": {
        "type": "Polygon",
        "coordinates": [
          [
            [
              120.08377522598235,
              30.311462668805476
            ],
            [
              120.08374722361823,
              30.311462419935875
            ],
            [
              120.08374901424276,
              30.311431632896916
            ],
            [
              120.08377701659815,
              30.311431881765568
            ],
            [
              120.08377522598235,
              30.311462668805476
            ]
          ]
        ]
      }
    },
    {
      "type": "Feature",
      "id": "3f_b1_318",
      "properties": {
        "id": "3f_b1_318",
        "status": "navigation_draft_not_survey",
        "building_id": "zju2_zijingang_b1",
        "name": "一号楼318",
        "room_ref": "318",
        "use_type": "room",
        "label_confidence": "high",
        "geometry_confidence": "medium",
        "boundary_role": "generalized_visible_partition_not_wall_survey",
        "evidence_ids": [
          "plan_3f",
          "user_building_statement"
        ],
        "building_confidence": "high",
        "accessible": "unknown",
        "access_control": "unknown",
        "level_id": "zju2_zijingang_b1_3f",
        "floor": "3F",
        "geometry_px": {
          "type": "Polygon",
          "coordinates": [
            [
              [
                170.0,
                302.0
              ],
              [
                217.0,
                302.0
              ],
              [
                217.0,
                337.0
              ],
              [
                170.0,
                337.0
              ],
              [
                170.0,
                302.0
              ]
            ]
          ]
        }
      },
      "geometry": {
        "type": "Polygon",
        "coordinates": [
          [
            [
              120.0837455734331,
              30.31149079230491
            ],
            [
              120.08371908470329,
              30.311490556881363
            ],
            [
              120.083720734896,
              30.311462184513157
            ],
            [
              120.08374722361823,
              30.311462419935875
            ],
            [
              120.0837455734331,
              30.31149079230491
            ]
          ]
        ]
      }
    },
    {
      "type": "Feature",
      "id": "3f_b1_320",
      "properties": {
        "id": "3f_b1_320",
        "status": "navigation_draft_not_survey",
        "building_id": "zju2_zijingang_b1",
        "name": "一号楼320",
        "room_ref": "320",
        "use_type": "room",
        "label_confidence": "high",
        "geometry_confidence": "medium",
        "boundary_role": "generalized_visible_partition_not_wall_survey",
        "evidence_ids": [
          "plan_3f",
          "user_building_statement"
        ],
        "building_confidence": "high",
        "accessible": "unknown",
        "access_control": "unknown",
        "level_id": "zju2_zijingang_b1_3f",
        "floor": "3F",
        "geometry_px": {
          "type": "Polygon",
          "coordinates": [
            [
              [
                217.0,
                302.0
              ],
              [
                268.0,
                302.0
              ],
              [
                268.0,
                337.0
              ],
              [
                217.0,
                337.0
              ],
              [
                217.0,
                302.0
              ]
            ]
          ]
        }
      },
      "geometry": {
        "type": "Polygon",
        "coordinates": [
          [
            [
              120.08374722361823,
              30.311462419935875
            ],
            [
              120.083720734896,
              30.311462184513157
            ],
            [
              120.08372252552877,
              30.311431397475108
            ],
            [
              120.08374901424276,
              30.311431632896916
            ],
            [
              120.08374722361823,
              30.311462419935875
            ]
          ]
        ]
      }
    },
    {
      "type": "Feature",
      "id": "3f_b1_324",
      "properties": {
        "id": "3f_b1_324",
        "status": "navigation_draft_not_survey",
        "building_id": "zju2_zijingang_b1",
        "name": "一号楼324",
        "room_ref": "324",
        "use_type": "room",
        "label_confidence": "high",
        "geometry_confidence": "medium",
        "boundary_role": "generalized_visible_partition_not_wall_survey",
        "evidence_ids": [
          "plan_3f",
          "user_building_statement"
        ],
        "building_confidence": "high",
        "accessible": "unknown",
        "access_control": "unknown",
        "level_id": "zju2_zijingang_b1_3f",
        "floor": "3F",
        "geometry_px": {
          "type": "Polygon",
          "coordinates": [
            [
              [
                170.0,
                350.0
              ],
              [
                217.0,
                350.0
              ],
              [
                217.0,
                391.0
              ],
              [
                170.0,
                391.0
              ],
              [
                170.0,
                350.0
              ]
            ]
          ]
        }
      },
      "geometry": {
        "type": "Polygon",
        "coordinates": [
          [
            [
              120.08370924603236,
              30.311490469436958
            ],
            [
              120.08367821637843,
              30.31149019364594
            ],
            [
              120.08367986658288,
              30.311461821279025
            ],
            [
              120.0837108962279,
              30.311462097069068
            ],
            [
              120.08370924603236,
              30.311490469436958
            ]
          ]
        ]
      }
    },
    {
      "type": "Feature",
      "id": "3f_b1_322",
      "properties": {
        "id": "3f_b1_322",
        "status": "navigation_draft_not_survey",
        "building_id": "zju2_zijingang_b1",
        "name": "一号楼322",
        "room_ref": "322",
        "use_type": "room",
        "label_confidence": "high",
        "geometry_confidence": "medium",
        "boundary_role": "generalized_visible_partition_not_wall_survey",
        "evidence_ids": [
          "plan_3f",
          "user_building_statement"
        ],
        "building_confidence": "high",
        "accessible": "unknown",
        "access_control": "unknown",
        "level_id": "zju2_zijingang_b1_3f",
        "floor": "3F",
        "geometry_px": {
          "type": "Polygon",
          "coordinates": [
            [
              [
                217.0,
                350.0
              ],
              [
                268.0,
                350.0
              ],
              [
                268.0,
                391.0
              ],
              [
                217.0,
                391.0
              ],
              [
                217.0,
                350.0
              ]
            ]
          ]
        }
      },
      "geometry": {
        "type": "Polygon",
        "coordinates": [
          [
            [
              120.0837108962279,
              30.311462097069068
            ],
            [
              120.08367986658288,
              30.311461821279025
            ],
            [
              120.08368165722838,
              30.31143103424236
            ],
            [
              120.08371268686375,
              30.311431310031356
            ],
            [
              120.0837108962279,
              30.311462097069068
            ]
          ]
        ]
      }
    },
    {
      "type": "Feature",
      "id": "3f_b1_326",
      "properties": {
        "id": "3f_b1_326",
        "status": "navigation_draft_not_survey",
        "building_id": "zju2_zijingang_b1",
        "name": "一号楼326",
        "room_ref": "326",
        "use_type": "room",
        "label_confidence": "high",
        "geometry_confidence": "medium",
        "boundary_role": "generalized_visible_partition_not_wall_survey",
        "evidence_ids": [
          "plan_3f",
          "user_building_statement"
        ],
        "building_confidence": "high",
        "accessible": "unknown",
        "access_control": "unknown",
        "level_id": "zju2_zijingang_b1_3f",
        "floor": "3F",
        "geometry_px": {
          "type": "Polygon",
          "coordinates": [
            [
              [
                170.0,
                391.0
              ],
              [
                217.0,
                391.0
              ],
              [
                217.0,
                434.0
              ],
              [
                170.0,
                434.0
              ],
              [
                170.0,
                391.0
              ]
            ]
          ]
        }
      },
      "geometry": {
        "type": "Polygon",
        "coordinates": [
          [
            [
              120.08367821637843,
              30.31149019364594
            ],
            [
              120.08364567308371,
              30.31148990439377
            ],
            [
              120.08364732329751,
              30.311461532027895
            ],
            [
              120.08367986658288,
              30.311461821279025
            ],
            [
              120.08367821637843,
              30.31149019364594
            ]
          ]
        ]
      }
    },
    {
      "type": "Feature",
      "id": "3f_b1_328",
      "properties": {
        "id": "3f_b1_328",
        "status": "navigation_draft_not_survey",
        "building_id": "zju2_zijingang_b1",
        "name": "一号楼328",
        "room_ref": "328",
        "use_type": "room",
        "label_confidence": "high",
        "geometry_confidence": "medium",
        "boundary_role": "generalized_visible_partition_not_wall_survey",
        "evidence_ids": [
          "plan_3f",
          "user_building_statement"
        ],
        "building_confidence": "high",
        "accessible": "unknown",
        "access_control": "unknown",
        "level_id": "zju2_zijingang_b1_3f",
        "floor": "3F",
        "geometry_px": {
          "type": "Polygon",
          "coordinates": [
            [
              [
                217.0,
                391.0
              ],
              [
                268.0,
                391.0
              ],
              [
                268.0,
                434.0
              ],
              [
                217.0,
                434.0
              ],
              [
                217.0,
                391.0
              ]
            ]
          ]
        }
      },
      "geometry": {
        "type": "Polygon",
        "coordinates": [
          [
            [
              120.08367986658288,
              30.311461821279025
            ],
            [
              120.08364732329751,
              30.311461532027895
            ],
            [
              120.08364911395316,
              30.311430744992343
            ],
            [
              120.08368165722838,
              30.31143103424236
            ],
            [
              120.08367986658288,
              30.311461821279025
            ]
          ]
        ]
      }
    },
    {
      "type": "Feature",
      "id": "3f_b1_330",
      "properties": {
        "id": "3f_b1_330",
        "status": "navigation_draft_not_survey",
        "building_id": "zju2_zijingang_b1",
        "name": "一号楼330",
        "room_ref": "330",
        "use_type": "room",
        "label_confidence": "high",
        "geometry_confidence": "medium",
        "boundary_role": "generalized_visible_partition_not_wall_survey",
        "evidence_ids": [
          "plan_3f",
          "user_building_statement"
        ],
        "building_confidence": "high",
        "accessible": "unknown",
        "access_control": "unknown",
        "level_id": "zju2_zijingang_b1_3f",
        "floor": "3F",
        "geometry_px": {
          "type": "Polygon",
          "coordinates": [
            [
              [
                170.0,
                445.0
              ],
              [
                268.0,
                445.0
              ],
              [
                268.0,
                537.0
              ],
              [
                210.0,
                537.0
              ],
              [
                210.0,
                477.0
              ],
              [
                170.0,
                477.0
              ],
              [
                170.0,
                445.0
              ]
            ]
          ]
        }
      },
      "geometry": {
        "type": "Polygon",
        "coordinates": [
          [
            [
              120.08363734805498,
              30.311489830397747
            ],
            [
              120.08361312978991,
              30.31148961513353
            ],
            [
              120.08361453423522,
              30.31146546844004
            ],
            [
              120.08356912500066,
              30.311465064808765
            ],
            [
              120.08357116146033,
              30.311430052104722
            ],
            [
              120.08364078892942,
              30.311430670996852
            ],
            [
              120.08363734805498,
              30.311489830397747
            ]
          ]
        ]
      }
    },
    {
      "type": "Feature",
      "id": "3f_b1_332",
      "properties": {
        "id": "3f_b1_332",
        "status": "navigation_draft_not_survey",
        "building_id": "zju2_zijingang_b1",
        "name": "一号楼332",
        "room_ref": "332",
        "use_type": "room",
        "label_confidence": "high",
        "geometry_confidence": "medium",
        "boundary_role": "generalized_visible_partition_not_wall_survey",
        "evidence_ids": [
          "plan_3f",
          "user_building_statement"
        ],
        "building_confidence": "high",
        "accessible": "unknown",
        "access_control": "unknown",
        "level_id": "zju2_zijingang_b1_3f",
        "floor": "3F",
        "geometry_px": {
          "type": "Polygon",
          "coordinates": [
            [
              [
                170.0,
                477.0
              ],
              [
                210.0,
                477.0
              ],
              [
                210.0,
                537.0
              ],
              [
                170.0,
                537.0
              ],
              [
                170.0,
                477.0
              ]
            ]
          ]
        }
      },
      "geometry": {
        "type": "Polygon",
        "coordinates": [
          [
            [
              120.08361312978991,
              30.31148961513353
            ],
            [
              120.08356772054422,
              30.311489211501033
            ],
            [
              120.08356912500066,
              30.311465064808765
            ],
            [
              120.08361453423522,
              30.31146546844004
            ],
            [
              120.08361312978991,
              30.31148961513353
            ]
          ]
        ]
      }
    },
    {
      "type": "Feature",
      "id": "3f_b1_336",
      "properties": {
        "id": "3f_b1_336",
        "status": "navigation_draft_not_survey",
        "building_id": "zju2_zijingang_b1",
        "name": "一号楼336",
        "room_ref": "336",
        "use_type": "room",
        "label_confidence": "high",
        "geometry_confidence": "medium",
        "boundary_role": "generalized_visible_partition_not_wall_survey",
        "evidence_ids": [
          "plan_3f",
          "user_building_statement"
        ],
        "building_confidence": "high",
        "accessible": "unknown",
        "access_control": "unknown",
        "level_id": "zju2_zijingang_b1_3f",
        "floor": "3F",
        "geometry_px": {
          "type": "Polygon",
          "coordinates": [
            [
              [
                210.0,
                537.0
              ],
              [
                268.0,
                537.0
              ],
              [
                268.0,
                586.0
              ],
              [
                210.0,
                586.0
              ],
              [
                210.0,
                537.0
              ]
            ]
          ]
        }
      },
      "geometry": {
        "type": "Polygon",
        "coordinates": [
          [
            [
              120.08356912500066,
              30.311465064808765
            ],
            [
              120.0835320407937,
              30.31146473516486
            ],
            [
              120.08353407726653,
              30.311429722462258
            ],
            [
              120.08357116146033,
              30.311430052104722
            ],
            [
              120.08356912500066,
              30.311465064808765
            ]
          ]
        ]
      }
    },
    {
      "type": "Feature",
      "id": "3f_b1_338",
      "properties": {
        "id": "3f_b1_338",
        "status": "navigation_draft_not_survey",
        "building_id": "zju2_zijingang_b1",
        "name": "一号楼338",
        "room_ref": "338",
        "use_type": "room",
        "label_confidence": "high",
        "geometry_confidence": "medium",
        "boundary_role": "generalized_visible_partition_not_wall_survey",
        "evidence_ids": [
          "plan_3f",
          "user_building_statement"
        ],
        "building_confidence": "high",
        "accessible": "unknown",
        "access_control": "unknown",
        "level_id": "zju2_zijingang_b1_3f",
        "floor": "3F",
        "geometry_px": {
          "type": "Polygon",
          "coordinates": [
            [
              [
                210.0,
                586.0
              ],
              [
                268.0,
                586.0
              ],
              [
                268.0,
                637.0
              ],
              [
                210.0,
                637.0
              ],
              [
                210.0,
                586.0
              ]
            ]
          ]
        }
      },
      "geometry": {
        "type": "Polygon",
        "coordinates": [
          [
            [
              120.0835320407937,
              30.31146473516486
            ],
            [
              120.08349344294687,
              30.311464392054933
            ],
            [
              120.0834954794334,
              30.31142937935384
            ],
            [
              120.08353407726653,
              30.311429722462258
            ],
            [
              120.0835320407937,
              30.31146473516486
            ]
          ]
        ]
      }
    },
    {
      "type": "Feature",
      "id": "3f_b1_stair_n",
      "properties": {
        "id": "3f_b1_stair_n",
        "status": "navigation_draft_not_survey",
        "building_id": "zju2_zijingang_b1",
        "name": "一号楼图上侧楼梯",
        "room_ref": null,
        "use_type": "stairs",
        "label_confidence": "high",
        "geometry_confidence": "medium",
        "boundary_role": "generalized_visible_partition_not_wall_survey",
        "evidence_ids": [
          "plan_3f",
          "user_building_statement"
        ],
        "building_confidence": "high",
        "accessible": "unknown",
        "access_control": "unknown",
        "level_id": "zju2_zijingang_b1_3f",
        "floor": "3F",
        "geometry_px": {
          "type": "Polygon",
          "coordinates": [
            [
              [
                23.0,
                102.0
              ],
              [
                137.0,
                102.0
              ],
              [
                137.0,
                112.0
              ],
              [
                127.0,
                112.0
              ],
              [
                127.0,
                147.0
              ],
              [
                23.0,
                147.0
              ],
              [
                23.0,
                102.0
              ]
            ]
          ]
        }
      },
      "geometry": {
        "type": "Polygon",
        "coordinates": [
          [
            [
              120.08389177652289,
              30.311580876604733
            ],
            [
              120.0838577195497,
              30.3115805739524
            ],
            [
              120.0838613709579,
              30.31151779253296
            ],
            [
              120.08388785969791,
              30.311518027928134
            ],
            [
              120.08388821079281,
              30.311511991252964
            ],
            [
              120.08389577900387,
              30.3115120585077
            ],
            [
              120.08389177652289,
              30.311580876604733
            ]
          ]
        ]
      }
    },
    {
      "type": "Feature",
      "id": "3f_b1_stair_s",
      "properties": {
        "id": "3f_b1_stair_s",
        "status": "navigation_draft_not_survey",
        "building_id": "zju2_zijingang_b1",
        "name": "一号楼图下侧楼梯",
        "room_ref": null,
        "use_type": "stairs",
        "label_confidence": "high",
        "geometry_confidence": "medium",
        "boundary_role": "generalized_visible_partition_not_wall_survey",
        "evidence_ids": [
          "plan_3f",
          "user_building_statement"
        ],
        "building_confidence": "high",
        "accessible": "unknown",
        "access_control": "unknown",
        "level_id": "zju2_zijingang_b1_3f",
        "floor": "3F",
        "geometry_px": {
          "type": "Polygon",
          "coordinates": [
            [
              [
                21.0,
                529.0
              ],
              [
                125.0,
                529.0
              ],
              [
                125.0,
                574.0
              ],
              [
                21.0,
                574.0
              ],
              [
                21.0,
                529.0
              ]
            ]
          ]
        }
      },
      "geometry": {
        "type": "Polygon",
        "coordinates": [
          [
            [
              120.08356854350491,
              30.311579211747738
            ],
            [
              120.08353448654061,
              30.311578909011196
            ],
            [
              120.0835381381543,
              30.31151612761428
            ],
            [
              120.08357219509695,
              30.311516430348437
            ],
            [
              120.08356854350491,
              30.311579211747738
            ]
          ]
        ]
      }
    },
    {
      "type": "Feature",
      "id": "3f_b1_toilets",
      "properties": {
        "id": "3f_b1_toilets",
        "status": "navigation_draft_not_survey",
        "building_id": "zju2_zijingang_b1",
        "name": "toilets",
        "room_ref": null,
        "use_type": "restroom",
        "label_confidence": "high",
        "geometry_confidence": "medium",
        "boundary_role": "generalized_visible_partition_not_wall_survey",
        "evidence_ids": [
          "plan_3f",
          "user_building_statement"
        ],
        "building_confidence": "high",
        "accessible": "unknown",
        "access_control": "unknown",
        "level_id": "zju2_zijingang_b1_3f",
        "floor": "3F",
        "geometry_px": {
          "type": "Polygon",
          "coordinates": [
            [
              [
                54.0,
                40.0
              ],
              [
                105.0,
                40.0
              ],
              [
                105.0,
                101.0
              ],
              [
                54.0,
                101.0
              ],
              [
                54.0,
                40.0
              ]
            ]
          ]
        }
      },
      "geometry": {
        "type": "Polygon",
        "coordinates": [
          [
            [
              120.08393978785138,
              30.31156257988396
            ],
            [
              120.08389362173932,
              30.311562169637284
            ],
            [
              120.08389541232268,
              30.311531382593856
            ],
            [
              120.08394157842038,
              30.311531792838952
            ],
            [
              120.08393978785138,
              30.31156257988396
            ]
          ]
        ]
      }
    },
    {
      "type": "Feature",
      "id": "3f_b1_unknown_shaft_s",
      "properties": {
        "id": "3f_b1_unknown_shaft_s",
        "status": "navigation_draft_not_survey",
        "building_id": "zju2_zijingang_b1",
        "name": "未标注方框（用途待核）",
        "room_ref": null,
        "use_type": "unknown",
        "label_confidence": "high",
        "geometry_confidence": "medium",
        "boundary_role": "generalized_visible_partition_not_wall_survey",
        "evidence_ids": [
          "plan_3f",
          "user_building_statement"
        ],
        "building_confidence": "high",
        "accessible": "unknown",
        "access_control": "unknown",
        "level_id": "zju2_zijingang_b1_3f",
        "floor": "3F",
        "geometry_px": {
          "type": "Polygon",
          "coordinates": [
            [
              [
                54.0,
                488.0
              ],
              [
                106.0,
                488.0
              ],
              [
                106.0,
                528.0
              ],
              [
                54.0,
                528.0
              ],
              [
                54.0,
                488.0
              ]
            ]
          ]
        }
      },
      "geometry": {
        "type": "Polygon",
        "coordinates": [
          [
            [
              120.0836007318572,
              30.311559566545125
            ],
            [
              120.08357045900532,
              30.311559297454263
            ],
            [
              120.08357228480082,
              30.311527906754563
            ],
            [
              120.08360255764309,
              30.311528175844366
            ],
            [
              120.0836007318572,
              30.311559566545125
            ]
          ]
        ]
      }
    }
  ]
}
