{
  "type": "FeatureCollection",
  "features": [
    {
      "type": "Feature",
      "id": "zju2_zijingang_1f",
      "properties": {
        "id": "zju2_zijingang",
        "name": "浙大二院浙大院区（紫金港）",
        "level_id": "zju2_zijingang_1f",
        "level_name": "1F",
        "ordinal": 1,
        "height_m": 0.0,
        "status": "draft_unverified",
        "accuracy_m": 2.001,
        "geometry_role": "coarse_level_envelope_not_wall_footprint"
      },
      "geometry": {
        "type": "Polygon",
        "coordinates": [
          [
            [
              120.08390935282,
              30.31185644609
            ],
            [
              120.083913349695,
              30.311755966961
            ],
            [
              120.083936610874,
              30.311756173553
            ],
            [
              120.083948735009,
              30.311451341156
            ],
            [
              120.083830314725,
              30.311450289318
            ],
            [
              120.083835741442,
              30.3113138274
            ],
            [
              120.083585352402,
              30.311173733599
            ],
            [
              120.083516425463,
              30.311258015112
            ],
            [
              120.083508920181,
              30.311446753452
            ],
            [
              120.08350046182,
              30.311446678219
            ],
            [
              120.083495466822,
              30.311572277334
            ],
            [
              120.083552560839,
              30.311572785107
            ],
            [
              120.083549320616,
              30.311654254751
            ],
            [
              120.083515487106,
              30.31165395386
            ],
            [
              120.083508412065,
              30.311831829074
            ],
            [
              120.083576079128,
              30.311832430829
            ],
            [
              120.083575241947,
              30.31185347712
            ],
            [
              120.08390935282,
              30.31185644609
            ]
          ]
        ]
      }
    }
  ]
}
