{
  "type": "FeatureCollection",
  "features": [
    {
      "type": "Feature",
      "id": "zju2_zijingang_2f",
      "properties": {
        "id": "zju2_zijingang",
        "name": "浙大二院浙大院区（紫金港）",
        "level_id": "zju2_zijingang_2f",
        "level_name": "2F",
        "ordinal": 2,
        "height_m": 4.2,
        "status": "draft_unverified",
        "accuracy_m": 2.649,
        "geometry_role": "coarse_level_envelope_including_non_navigable_roof_void"
      },
      "geometry": {
        "type": "Polygon",
        "coordinates": [
          [
            [
              120.083921248914,
              30.311835198432
            ],
            [
              120.083920104794,
              30.311735001441
            ],
            [
              120.083943665461,
              30.311734434291
            ],
            [
              120.083941736225,
              30.31156553063
            ],
            [
              120.08395173167,
              30.311565290018
            ],
            [
              120.083950325169,
              30.311442190613
            ],
            [
              120.083841803582,
              30.311444802862
            ],
            [
              120.083840331279,
              30.311315977789
            ],
            [
              120.083592644425,
              30.311201668915
            ],
            [
              120.083522395768,
              30.311303584166
            ],
            [
              120.083599060888,
              30.311450644942
            ],
            [
              120.083520527386,
              30.311452534607
            ],
            [
              120.083521933831,
              30.311575634024
            ],
            [
              120.083596897628,
              30.311573830255
            ],
            [
              120.083598597955,
              30.31172269452
            ],
            [
              120.083534343236,
              30.311724240624
            ],
            [
              120.08353545468,
              30.311821574868
            ],
            [
              120.083599709405,
              30.311820028762
            ],
            [
              120.083599970888,
              30.311842930927
            ],
            [
              120.083921248914,
              30.311835198432
            ]
          ]
        ]
      }
    }
  ]
}
