{
  "type": "FeatureCollection",
  "features": [
    {
      "type": "Feature",
      "id": "zju2_zijingang_3f",
      "properties": {
        "id": "zju2_zijingang",
        "name": "浙大二院浙大院区（紫金港）",
        "building_id": "zju2_zijingang_b1",
        "building_name": "一号楼",
        "level_id": "zju2_zijingang_3f",
        "level_name": "3F",
        "ordinal": 3,
        "height_m": 8.4,
        "status": "draft_unverified",
        "accuracy_m": 2.748,
        "geometry_role": "Building 1 coarse occupied-floor envelope"
      },
      "geometry": {
        "type": "Polygon",
        "coordinates": [
          [
            [
              120.083937378484,
              30.311563934123
            ],
            [
              120.083935978082,
              30.311441368672
            ],
            [
              120.083510823738,
              30.311451600774
            ],
            [
              120.083512224086,
              30.311574166236
            ],
            [
              120.083574745986,
              30.311572661879
            ],
            [
              120.083574936915,
              30.311589375343
            ],
            [
              120.083609671427,
              30.311588539525
            ],
            [
              120.083609480497,
              30.311571826062
            ],
            [
              120.083863045024,
              30.311565723428
            ],
            [
              120.083863235958,
              30.31158243689
            ],
            [
              120.083894497648,
              30.311581684393
            ],
            [
              120.083894306714,
              30.31156497093
            ],
            [
              120.083937378484,
              30.311563934123
            ]
          ]
        ]
      }
    }
  ]
}
