{
  "type": "FeatureCollection",
  "features": [
    {
      "type": "Feature",
      "id": "e3_c01",
      "properties": {
        "id": "e3_c01",
        "level_id": "zju2_zijingang_3f",
        "source": "n3_c_115",
        "target": "n3_c_170",
        "accessible": true,
        "length_m": 3.654,
        "walk_seconds": 3.2,
        "path_px": [
          [
            145,
            115
          ],
          [
            145,
            170
          ]
        ],
        "coordinates_local_m": [
          [
            39.07,
            12.157
          ],
          [
            35.416,
            12.177
          ]
        ]
      },
      "geometry": {
        "type": "LineString",
        "coordinates": [
          [
            120.083883281472,
            30.311512295788
          ],
          [
            120.083845072779,
            30.311513215495
          ]
        ]
      }
    },
    {
      "type": "Feature",
      "id": "e3_c02",
      "properties": {
        "id": "e3_c02",
        "level_id": "zju2_zijingang_3f",
        "source": "n3_c_170",
        "target": "n3_c_225",
        "accessible": true,
        "length_m": 3.654,
        "walk_seconds": 3.2,
        "path_px": [
          [
            145,
            170
          ],
          [
            145,
            225
          ]
        ],
        "coordinates_local_m": [
          [
            35.416,
            12.177
          ],
          [
            31.762,
            12.197
          ]
        ]
      },
      "geometry": {
        "type": "LineString",
        "coordinates": [
          [
            120.083845072779,
            30.311513215495
          ],
          [
            120.083806864186,
            30.311514135167
          ]
        ]
      }
    },
    {
      "type": "Feature",
      "id": "e3_c03",
      "properties": {
        "id": "e3_c03",
        "level_id": "zju2_zijingang_3f",
        "source": "n3_c_225",
        "target": "n3_c_290",
        "accessible": true,
        "length_m": 4.318,
        "walk_seconds": 3.8,
        "path_px": [
          [
            145,
            225
          ],
          [
            145,
            290
          ]
        ],
        "coordinates_local_m": [
          [
            31.762,
            12.197
          ],
          [
            27.444,
            12.22
          ]
        ]
      },
      "geometry": {
        "type": "LineString",
        "coordinates": [
          [
            120.083806864186,
            30.311514135167
          ],
          [
            120.083761708707,
            30.311515222004
          ]
        ]
      }
    },
    {
      "type": "Feature",
      "id": "e3_c04",
      "properties": {
        "id": "e3_c04",
        "level_id": "zju2_zijingang_3f",
        "source": "n3_c_290",
        "target": "n3_c_335",
        "accessible": true,
        "length_m": 2.99,
        "walk_seconds": 2.6,
        "path_px": [
          [
            145,
            290
          ],
          [
            145,
            335
          ]
        ],
        "coordinates_local_m": [
          [
            27.444,
            12.22
          ],
          [
            24.454,
            12.237
          ]
        ]
      },
      "geometry": {
        "type": "LineString",
        "coordinates": [
          [
            120.083761708707,
            30.311515222004
          ],
          [
            120.083730447304,
            30.311515974397
          ]
        ]
      }
    },
    {
      "type": "Feature",
      "id": "e3_c05",
      "properties": {
        "id": "e3_c05",
        "level_id": "zju2_zijingang_3f",
        "source": "n3_c_335",
        "target": "n3_c_390",
        "accessible": true,
        "length_m": 3.654,
        "walk_seconds": 3.2,
        "path_px": [
          [
            145,
            335
          ],
          [
            145,
            390
          ]
        ],
        "coordinates_local_m": [
          [
            24.454,
            12.237
          ],
          [
            20.8,
            12.257
          ]
        ]
      },
      "geometry": {
        "type": "LineString",
        "coordinates": [
          [
            120.083730447304,
            30.311515974397
          ],
          [
            120.083692239017,
            30.311516893949
          ]
        ]
      }
    },
    {
      "type": "Feature",
      "id": "e3_c06",
      "properties": {
        "id": "e3_c06",
        "level_id": "zju2_zijingang_3f",
        "source": "n3_c_390",
        "target": "n3_c_450",
        "accessible": true,
        "length_m": 3.986,
        "walk_seconds": 3.5,
        "path_px": [
          [
            145,
            390
          ],
          [
            145,
            450
          ]
        ],
        "coordinates_local_m": [
          [
            20.8,
            12.257
          ],
          [
            16.814,
            12.279
          ]
        ]
      },
      "geometry": {
        "type": "LineString",
        "coordinates": [
          [
            120.083692239017,
            30.311516893949
          ],
          [
            120.083650557368,
            30.311517897044
          ]
        ]
      }
    },
    {
      "type": "Feature",
      "id": "e3_c07",
      "properties": {
        "id": "e3_c07",
        "level_id": "zju2_zijingang_3f",
        "source": "n3_c_450",
        "target": "n3_c_510",
        "accessible": true,
        "length_m": 3.986,
        "walk_seconds": 3.5,
        "path_px": [
          [
            145,
            450
          ],
          [
            145,
            510
          ]
        ],
        "coordinates_local_m": [
          [
            16.814,
            12.279
          ],
          [
            12.828,
            12.3
          ]
        ]
      },
      "geometry": {
        "type": "LineString",
        "coordinates": [
          [
            120.083650557368,
            30.311517897044
          ],
          [
            120.083608875842,
            30.311518900081
          ]
        ]
      }
    },
    {
      "type": "Feature",
      "id": "e3_c08",
      "properties": {
        "id": "e3_c08",
        "level_id": "zju2_zijingang_3f",
        "source": "n3_c_510",
        "target": "n3_c_555",
        "accessible": true,
        "length_m": 2.99,
        "walk_seconds": 2.6,
        "path_px": [
          [
            145,
            510
          ],
          [
            145,
            555
          ]
        ],
        "coordinates_local_m": [
          [
            12.828,
            12.3
          ],
          [
            9.838,
            12.317
          ]
        ]
      },
      "geometry": {
        "type": "LineString",
        "coordinates": [
          [
            120.083608875842,
            30.311518900081
          ],
          [
            120.083577614779,
            30.311519652319
          ]
        ]
      }
    },
    {
      "type": "Feature",
      "id": "e3_c09",
      "properties": {
        "id": "e3_c09",
        "level_id": "zju2_zijingang_3f",
        "source": "n3_c_555",
        "target": "n3_c_615",
        "accessible": true,
        "length_m": 3.986,
        "walk_seconds": 3.5,
        "path_px": [
          [
            145,
            555
          ],
          [
            145,
            615
          ]
        ],
        "coordinates_local_m": [
          [
            9.838,
            12.317
          ],
          [
            5.852,
            12.339
          ]
        ]
      },
      "geometry": {
        "type": "LineString",
        "coordinates": [
          [
            120.083577614779,
            30.311519652319
          ],
          [
            120.083535933473,
            30.311520655245
          ]
        ]
      }
    },
    {
      "type": "Feature",
      "id": "e3_stair_n",
      "properties": {
        "id": "e3_stair_n",
        "level_id": "zju2_zijingang_3f",
        "source": "n3_stair_n",
        "target": "n3_c_115",
        "accessible": false,
        "length_m": 3.659,
        "walk_seconds": 3.2,
        "path_px": [
          [
            86,
            115
          ],
          [
            145,
            115
          ]
        ],
        "coordinates_local_m": [
          [
            39.103,
            15.816
          ],
          [
            39.07,
            12.157
          ]
        ]
      },
      "geometry": {
        "type": "LineString",
        "coordinates": [
          [
            120.083883657013,
            30.311545165608
          ],
          [
            120.083883281472,
            30.311512295788
          ]
        ]
      }
    },
    {
      "type": "Feature",
      "id": "e3_stair_s",
      "properties": {
        "id": "e3_stair_s",
        "level_id": "zju2_zijingang_3f",
        "source": "n3_stair_s",
        "target": "n3_c_555",
        "accessible": false,
        "length_m": 3.673,
        "walk_seconds": 3.2,
        "path_px": [
          [
            86,
            560
          ],
          [
            145,
            555
          ]
        ],
        "coordinates_local_m": [
          [
            9.54,
            15.978
          ],
          [
            9.838,
            12.317
          ]
        ]
      },
      "geometry": {
        "type": "LineString",
        "coordinates": [
          [
            120.083574516862,
            30.31155260572
          ],
          [
            120.083577614779,
            30.311519652319
          ]
        ]
      }
    },
    {
      "type": "Feature",
      "id": "e_3f_b1_301",
      "properties": {
        "id": "e_3f_b1_301",
        "level_id": "zju2_zijingang_3f",
        "source": "n3_c_170",
        "target": "n_3f_b1_301",
        "accessible": true,
        "length_m": 1.361,
        "walk_seconds": 1.2,
        "path_px": [
          [
            145,
            170
          ],
          [
            130,
            185
          ]
        ],
        "coordinates_local_m": [
          [
            35.416,
            12.177
          ],
          [
            34.428,
            13.113
          ]
        ]
      },
      "geometry": {
        "type": "LineString",
        "coordinates": [
          [
            120.083845072779,
            30.311513215495
          ],
          [
            120.083834747722,
            30.311521823052
          ]
        ]
      }
    },
    {
      "type": "Feature",
      "id": "e_3f_b1_303",
      "properties": {
        "id": "e_3f_b1_303",
        "level_id": "zju2_zijingang_3f",
        "source": "n3_c_225",
        "target": "n_3f_b1_303",
        "accessible": true,
        "length_m": 2.317,
        "walk_seconds": 2.0,
        "path_px": [
          [
            145,
            225
          ],
          [
            130,
            257
          ]
        ],
        "coordinates_local_m": [
          [
            31.762,
            12.197
          ],
          [
            29.645,
            13.139
          ]
        ]
      },
      "geometry": {
        "type": "LineString",
        "coordinates": [
          [
            120.083806864186,
            30.311514135167
          ],
          [
            120.083784729256,
            30.311523026967
          ]
        ]
      }
    },
    {
      "type": "Feature",
      "id": "e_3f_b1_305",
      "properties": {
        "id": "e_3f_b1_305",
        "level_id": "zju2_zijingang_3f",
        "source": "n3_c_290",
        "target": "n_3f_b1_305",
        "accessible": true,
        "length_m": 1.73,
        "walk_seconds": 1.5,
        "path_px": [
          [
            145,
            290
          ],
          [
            130,
            312
          ]
        ],
        "coordinates_local_m": [
          [
            27.444,
            12.22
          ],
          [
            25.991,
            13.159
          ]
        ]
      },
      "geometry": {
        "type": "LineString",
        "coordinates": [
          [
            120.083761708707,
            30.311515222004
          ],
          [
            120.083746520824,
            30.311523946579
          ]
        ]
      }
    },
    {
      "type": "Feature",
      "id": "e_3f_b1_307",
      "properties": {
        "id": "e_3f_b1_307",
        "level_id": "zju2_zijingang_3f",
        "source": "n3_c_335",
        "target": "n_3f_b1_307",
        "accessible": true,
        "length_m": 2.317,
        "walk_seconds": 2.0,
        "path_px": [
          [
            145,
            335
          ],
          [
            130,
            367
          ]
        ],
        "coordinates_local_m": [
          [
            24.454,
            12.237
          ],
          [
            22.337,
            13.179
          ]
        ]
      },
      "geometry": {
        "type": "LineString",
        "coordinates": [
          [
            120.083730447304,
            30.311515974397
          ],
          [
            120.083708312493,
            30.311524866149
          ]
        ]
      }
    },
    {
      "type": "Feature",
      "id": "e_3f_b1_309",
      "properties": {
        "id": "e_3f_b1_309",
        "level_id": "zju2_zijingang_3f",
        "source": "n3_c_450",
        "target": "n_3f_b1_309",
        "accessible": true,
        "length_m": 1.517,
        "walk_seconds": 1.3,
        "path_px": [
          [
            145,
            450
          ],
          [
            130,
            432
          ]
        ],
        "coordinates_local_m": [
          [
            16.814,
            12.279
          ],
          [
            18.018,
            13.202
          ]
        ]
      },
      "geometry": {
        "type": "LineString",
        "coordinates": [
          [
            120.083650557368,
            30.311517897044
          ],
          [
            120.083663157327,
            30.311525952856
          ]
        ]
      }
    },
    {
      "type": "Feature",
      "id": "e_3f_b1_311",
      "properties": {
        "id": "e_3f_b1_311",
        "level_id": "zju2_zijingang_3f",
        "source": "n3_c_510",
        "target": "n_3f_b1_311",
        "accessible": true,
        "length_m": 1.272,
        "walk_seconds": 1.1,
        "path_px": [
          [
            145,
            510
          ],
          [
            130,
            497
          ]
        ],
        "coordinates_local_m": [
          [
            12.828,
            12.3
          ],
          [
            13.7,
            13.226
          ]
        ]
      },
      "geometry": {
        "type": "LineString",
        "coordinates": [
          [
            120.083608875842,
            30.311518900081
          ],
          [
            120.083618002305,
            30.311527039497
          ]
        ]
      }
    },
    {
      "type": "Feature",
      "id": "e_3f_b1_302",
      "properties": {
        "id": "e_3f_b1_302",
        "level_id": "zju2_zijingang_3f",
        "source": "n3_c_115",
        "target": "n_3f_b1_302",
        "accessible": true,
        "length_m": 5.131,
        "walk_seconds": 4.5,
        "path_px": [
          [
            145,
            115
          ],
          [
            210,
            67
          ]
        ],
        "coordinates_local_m": [
          [
            39.07,
            12.157
          ],
          [
            42.222,
            8.108
          ]
        ]
      },
      "geometry": {
        "type": "LineString",
        "coordinates": [
          [
            120.083883281472,
            30.311512295788
          ],
          [
            120.083916213559,
            30.311475280587
          ]
        ]
      }
    },
    {
      "type": "Feature",
      "id": "e_3f_b1_304",
      "properties": {
        "id": "e_3f_b1_304",
        "level_id": "zju2_zijingang_3f",
        "source": "n3_c_115",
        "target": "n_3f_b1_304",
        "accessible": true,
        "length_m": 4.032,
        "walk_seconds": 3.5,
        "path_px": [
          [
            145,
            115
          ],
          [
            210,
            115
          ]
        ],
        "coordinates_local_m": [
          [
            39.07,
            12.157
          ],
          [
            39.033,
            8.125
          ]
        ]
      },
      "geometry": {
        "type": "LineString",
        "coordinates": [
          [
            120.083883281472,
            30.311512295788
          ],
          [
            120.08388286771,
            30.311476083266
          ]
        ]
      }
    },
    {
      "type": "Feature",
      "id": "e_3f_b1_306",
      "properties": {
        "id": "e_3f_b1_306",
        "level_id": "zju2_zijingang_3f",
        "source": "n3_c_170",
        "target": "n_3f_b1_306",
        "accessible": true,
        "length_m": 1.557,
        "walk_seconds": 1.4,
        "path_px": [
          [
            145,
            170
          ],
          [
            170,
            172
          ]
        ],
        "coordinates_local_m": [
          [
            35.416,
            12.177
          ],
          [
            35.269,
            10.627
          ]
        ]
      },
      "geometry": {
        "type": "LineString",
        "coordinates": [
          [
            120.083845072779,
            30.311513215495
          ],
          [
            120.083843524239,
            30.311499321046
          ]
        ]
      }
    },
    {
      "type": "Feature",
      "id": "e_3f_b1_308",
      "properties": {
        "id": "e_3f_b1_308",
        "level_id": "zju2_zijingang_3f",
        "source": "n3_c_170",
        "target": "n_3f_b1_308",
        "accessible": true,
        "length_m": 4.654,
        "walk_seconds": 4.0,
        "path_px": [
          [
            145,
            170
          ],
          [
            220,
            172
          ]
        ],
        "coordinates_local_m": [
          [
            35.416,
            12.177
          ],
          [
            35.241,
            7.526
          ]
        ]
      },
      "geometry": {
        "type": "LineString",
        "coordinates": [
          [
            120.083845072779,
            30.311513215495
          ],
          [
            120.083843205955,
            30.311471465257
          ]
        ]
      }
    },
    {
      "type": "Feature",
      "id": "e_3f_b1_310",
      "properties": {
        "id": "e_3f_b1_310",
        "level_id": "zju2_zijingang_3f",
        "source": "n3_c_225",
        "target": "n_3f_b1_310",
        "accessible": true,
        "length_m": 1.689,
        "walk_seconds": 1.5,
        "path_px": [
          [
            145,
            225
          ],
          [
            170,
            235
          ]
        ],
        "coordinates_local_m": [
          [
            31.762,
            12.197
          ],
          [
            31.084,
            10.65
          ]
        ]
      },
      "geometry": {
        "type": "LineString",
        "coordinates": [
          [
            120.083806864186,
            30.311514135167
          ],
          [
            120.083799758046,
            30.311500374484
          ]
        ]
      }
    },
    {
      "type": "Feature",
      "id": "e_3f_b1_312",
      "properties": {
        "id": "e_3f_b1_312",
        "level_id": "zju2_zijingang_3f",
        "source": "n3_c_225",
        "target": "n_3f_b1_312",
        "accessible": true,
        "length_m": 4.701,
        "walk_seconds": 4.1,
        "path_px": [
          [
            145,
            225
          ],
          [
            220,
            235
          ]
        ],
        "coordinates_local_m": [
          [
            31.762,
            12.197
          ],
          [
            31.055,
            7.549
          ]
        ]
      },
      "geometry": {
        "type": "LineString",
        "coordinates": [
          [
            120.083806864186,
            30.311514135167
          ],
          [
            120.083799439763,
            30.311472518695
          ]
        ]
      }
    },
    {
      "type": "Feature",
      "id": "e_3f_b1_316",
      "properties": {
        "id": "e_3f_b1_316",
        "level_id": "zju2_zijingang_3f",
        "source": "n3_c_290",
        "target": "n_3f_b1_316",
        "accessible": true,
        "length_m": 1.637,
        "walk_seconds": 1.4,
        "path_px": [
          [
            145,
            290
          ],
          [
            170,
            282
          ]
        ],
        "coordinates_local_m": [
          [
            27.444,
            12.22
          ],
          [
            27.961,
            10.667
          ]
        ]
      },
      "geometry": {
        "type": "LineString",
        "coordinates": [
          [
            120.083761708707,
            30.311515222004
          ],
          [
            120.083767107163,
            30.31150116035
          ]
        ]
      }
    },
    {
      "type": "Feature",
      "id": "e_3f_b1_314",
      "properties": {
        "id": "e_3f_b1_314",
        "level_id": "zju2_zijingang_3f",
        "source": "n3_c_290",
        "target": "n_3f_b1_314",
        "accessible": true,
        "length_m": 4.68,
        "walk_seconds": 4.1,
        "path_px": [
          [
            145,
            290
          ],
          [
            220,
            282
          ]
        ],
        "coordinates_local_m": [
          [
            27.444,
            12.22
          ],
          [
            27.933,
            7.566
          ]
        ]
      },
      "geometry": {
        "type": "LineString",
        "coordinates": [
          [
            120.083761708707,
            30.311515222004
          ],
          [
            120.083766788881,
            30.311473304561
          ]
        ]
      }
    },
    {
      "type": "Feature",
      "id": "e_3f_b1_318",
      "properties": {
        "id": "e_3f_b1_318",
        "level_id": "zju2_zijingang_3f",
        "source": "n3_c_335",
        "target": "n_3f_b1_318",
        "accessible": true,
        "length_m": 1.684,
        "walk_seconds": 1.5,
        "path_px": [
          [
            145,
            335
          ],
          [
            170,
            325
          ]
        ],
        "coordinates_local_m": [
          [
            24.454,
            12.237
          ],
          [
            25.104,
            10.683
          ]
        ]
      },
      "geometry": {
        "type": "LineString",
        "coordinates": [
          [
            120.083730447304,
            30.311515974397
          ],
          [
            120.083737235144,
            30.311501879309
          ]
        ]
      }
    },
    {
      "type": "Feature",
      "id": "e_3f_b1_320",
      "properties": {
        "id": "e_3f_b1_320",
        "level_id": "zju2_zijingang_3f",
        "source": "n3_c_335",
        "target": "n_3f_b1_320",
        "accessible": true,
        "length_m": 4.697,
        "walk_seconds": 4.1,
        "path_px": [
          [
            145,
            335
          ],
          [
            220,
            325
          ]
        ],
        "coordinates_local_m": [
          [
            24.454,
            12.237
          ],
          [
            25.076,
            7.581
          ]
        ]
      },
      "geometry": {
        "type": "LineString",
        "coordinates": [
          [
            120.083730447304,
            30.311515974397
          ],
          [
            120.083736916863,
            30.31147402352
          ]
        ]
      }
    },
    {
      "type": "Feature",
      "id": "e_3f_b1_324",
      "properties": {
        "id": "e_3f_b1_324",
        "level_id": "zju2_zijingang_3f",
        "source": "n3_c_390",
        "target": "n_3f_b1_324",
        "accessible": true,
        "length_m": 2.173,
        "walk_seconds": 1.9,
        "path_px": [
          [
            145,
            390
          ],
          [
            170,
            367
          ]
        ],
        "coordinates_local_m": [
          [
            20.8,
            12.257
          ],
          [
            22.314,
            10.698
          ]
        ]
      },
      "geometry": {
        "type": "LineString",
        "coordinates": [
          [
            120.083692239017,
            30.311516893949
          ],
          [
            120.083708057883,
            30.311502581522
          ]
        ]
      }
    },
    {
      "type": "Feature",
      "id": "e_3f_b1_322",
      "properties": {
        "id": "e_3f_b1_322",
        "level_id": "zju2_zijingang_3f",
        "source": "n3_c_390",
        "target": "n_3f_b1_322",
        "accessible": true,
        "length_m": 4.891,
        "walk_seconds": 4.3,
        "path_px": [
          [
            145,
            390
          ],
          [
            220,
            367
          ]
        ],
        "coordinates_local_m": [
          [
            20.8,
            12.257
          ],
          [
            22.286,
            7.597
          ]
        ]
      },
      "geometry": {
        "type": "LineString",
        "coordinates": [
          [
            120.083692239017,
            30.311516893949
          ],
          [
            120.083707739603,
            30.311474725733
          ]
        ]
      }
    },
    {
      "type": "Feature",
      "id": "e_3f_b1_326",
      "properties": {
        "id": "e_3f_b1_326",
        "level_id": "zju2_zijingang_3f",
        "source": "n3_c_390",
        "target": "n_3f_b1_326",
        "accessible": true,
        "length_m": 2.53,
        "walk_seconds": 2.2,
        "path_px": [
          [
            145,
            390
          ],
          [
            170,
            420
          ]
        ],
        "coordinates_local_m": [
          [
            20.8,
            12.257
          ],
          [
            18.793,
            10.717
          ]
        ]
      },
      "geometry": {
        "type": "LineString",
        "coordinates": [
          [
            120.083692239017,
            30.311516893949
          ],
          [
            120.083671239045,
            30.311503467611
          ]
        ]
      }
    },
    {
      "type": "Feature",
      "id": "e_3f_b1_328",
      "properties": {
        "id": "e_3f_b1_328",
        "level_id": "zju2_zijingang_3f",
        "source": "n3_c_390",
        "target": "n_3f_b1_328",
        "accessible": true,
        "length_m": 5.068,
        "walk_seconds": 4.4,
        "path_px": [
          [
            145,
            390
          ],
          [
            220,
            420
          ]
        ],
        "coordinates_local_m": [
          [
            20.8,
            12.257
          ],
          [
            18.765,
            7.616
          ]
        ]
      },
      "geometry": {
        "type": "LineString",
        "coordinates": [
          [
            120.083692239017,
            30.311516893949
          ],
          [
            120.083670920766,
            30.311475611822
          ]
        ]
      }
    },
    {
      "type": "Feature",
      "id": "e_3f_b1_330",
      "properties": {
        "id": "e_3f_b1_330",
        "level_id": "zju2_zijingang_3f",
        "source": "n3_c_450",
        "target": "n_3f_b1_330",
        "accessible": true,
        "length_m": 2.53,
        "walk_seconds": 2.2,
        "path_px": [
          [
            145,
            450
          ],
          [
            170,
            480
          ]
        ],
        "coordinates_local_m": [
          [
            16.814,
            12.279
          ],
          [
            14.807,
            10.739
          ]
        ]
      },
      "geometry": {
        "type": "LineString",
        "coordinates": [
          [
            120.083650557368,
            30.311517897044
          ],
          [
            120.083629557458,
            30.311504470677
          ]
        ]
      }
    },
    {
      "type": "Feature",
      "id": "e_3f_b1_332",
      "properties": {
        "id": "e_3f_b1_332",
        "level_id": "zju2_zijingang_3f",
        "source": "n3_c_510",
        "target": "n_3f_b1_332",
        "accessible": true,
        "length_m": 2.135,
        "walk_seconds": 1.9,
        "path_px": [
          [
            145,
            510
          ],
          [
            170,
            532
          ]
        ],
        "coordinates_local_m": [
          [
            12.828,
            12.3
          ],
          [
            11.352,
            10.758
          ]
        ]
      },
      "geometry": {
        "type": "LineString",
        "coordinates": [
          [
            120.083608875842,
            30.311518900081
          ],
          [
            120.083593433516,
            30.311505339953
          ]
        ]
      }
    },
    {
      "type": "Feature",
      "id": "e_3f_b1_336",
      "properties": {
        "id": "e_3f_b1_336",
        "level_id": "zju2_zijingang_3f",
        "source": "n3_c_555",
        "target": "n_3f_b1_336",
        "accessible": true,
        "length_m": 4.229,
        "walk_seconds": 3.7,
        "path_px": [
          [
            145,
            555
          ],
          [
            205,
            585
          ]
        ],
        "coordinates_local_m": [
          [
            9.838,
            12.317
          ],
          [
            7.811,
            8.606
          ]
        ]
      },
      "geometry": {
        "type": "LineString",
        "coordinates": [
          [
            120.083577614779,
            30.311519652319
          ],
          [
            120.083556392189,
            30.311486726844
          ]
        ]
      }
    },
    {
      "type": "Feature",
      "id": "e_3f_b1_338",
      "properties": {
        "id": "e_3f_b1_338",
        "level_id": "zju2_zijingang_3f",
        "source": "n3_c_615",
        "target": "n_3f_b1_338",
        "accessible": true,
        "length_m": 4.004,
        "walk_seconds": 3.5,
        "path_px": [
          [
            145,
            615
          ],
          [
            205,
            637
          ]
        ],
        "coordinates_local_m": [
          [
            5.852,
            12.339
          ],
          [
            4.357,
            8.625
          ]
        ]
      },
      "geometry": {
        "type": "LineString",
        "coordinates": [
          [
            120.083535933473,
            30.311520655245
          ],
          [
            120.083520268439,
            30.311487596021
          ]
        ]
      }
    }
  ]
}
